{
"type": "FeatureCollection",
"name": "PPR_Playstreets_Locations",
"crs": { "type": "name", "properties": { "name": "urn:ogc:def:crs:OGC:1.3:CRS84" } },
"features": [
{ "type": "Feature", "properties": { "OBJECTID": 1, "BLOCK_NAME": "1600 Block of S NEWKIRK ST", "ZIP_CODE": "19145", "YEAR": "2020", "COMMENTS": null, "DATA_SOURCE": "2020 Playstreets Program" }, "geometry": { "type": "Point", "coordinates": [ -75.1919285431389, 39.932892737553601 ] } },
{ "type": "Feature", "properties": { "OBJECTID": 2, "BLOCK_NAME": "3000 Block of N HEMBERGER ST", "ZIP_CODE": "19132", "YEAR": "2020", "COMMENTS": null, "DATA_SOURCE": "2020 Playstreets Program" }, "geometry": { "type": "Point", "coordinates": [ -75.167485806093694, 40.000927786270701 ] } },
{ "type": "Feature", "properties": { "OBJECTID": 3, "BLOCK_NAME": "2700 Block of N RINGGOLD ST", "ZIP_CODE": "19132", "YEAR": "2020", "COMMENTS": null, "DATA_SOURCE": "2020 Playstreets Program" }, "geometry": { "type": "Point", "coordinates": [ -75.171150719369905, 39.996914239838901 ] } },
{ "type": "Feature", "properties": { "OBJECTID": 4, "BLOCK_NAME": "1900 Block of E OAKDALE ST", "ZIP_CODE": "19125", "YEAR": "2020", "COMMENTS": null, "DATA_SOURCE": "2020 Playstreets Program" }, "geometry": { "type": "Point", "coordinates": [ -75.124582314388505, 39.9880140090917 ] } },
{ "type": "Feature", "properties": { "OBJECTID": 5, "BLOCK_NAME": "2800 Block of N FRANKLIN ST", "ZIP_CODE": "19133", "YEAR": "2020", "COMMENTS": null, "DATA_SOURCE": "2020 Playstreets Program" }, "geometry": { "type": "Point", "coordinates": [ -75.143959856436595, 39.994979857671701 ] } },
{ "type": "Feature", "properties": { "OBJECTID": 6, "BLOCK_NAME": "4500 Block of N HICKS ST", "ZIP_CODE": "19140", "YEAR": "2020", "COMMENTS": null, "DATA_SOURCE": "2020 Playstreets Program" }, "geometry": { "type": "Point", "coordinates": [ -75.150608727213694, 40.022517654793901 ] } },
{ "type": "Feature", "properties": { "OBJECTID": 7, "BLOCK_NAME": "1300 Block of N DOVER ST", "ZIP_CODE": "19121", "YEAR": "2020", "COMMENTS": null, "DATA_SOURCE": "2020 Playstreets Program" }, "geometry": { "type": "Point", "coordinates": [ -75.182371663570706, 39.976870490345 ] } },
{ "type": "Feature", "properties": { "OBJECTID": 8, "BLOCK_NAME": "1800 Block of E CORNWALL ST", "ZIP_CODE": "19134", "YEAR": "2020", "COMMENTS": null, "DATA_SOURCE": "2020 Playstreets Program" }, "geometry": { "type": "Point", "coordinates": [ -75.109816673483706, 39.997447195379699 ] } },
{ "type": "Feature", "properties": { "OBJECTID": 9, "BLOCK_NAME": "1200 Block of GREYLOCK ST", "ZIP_CODE": "19143", "YEAR": "2020", "COMMENTS": null, "DATA_SOURCE": "2020 Playstreets Program" }, "geometry": { "type": "Point", "coordinates": [ -75.215017509826794, 39.942198457890598 ] } },
{ "type": "Feature", "properties": { "OBJECTID": 10, "BLOCK_NAME": "2800 Block of N 8TH ST", "ZIP_CODE": "19133", "YEAR": "2020", "COMMENTS": null, "DATA_SOURCE": "2020 Playstreets Program" }, "geometry": { "type": "Point", "coordinates": [ -75.144602186303402, 39.9950636806105 ] } },
{ "type": "Feature", "properties": { "OBJECTID": 11, "BLOCK_NAME": "2600 Block of S DAGGETT ST", "ZIP_CODE": "19142", "YEAR": "2020", "COMMENTS": null, "DATA_SOURCE": "2020 Playstreets Program" }, "geometry": { "type": "Point", "coordinates": [ -75.228850661985703, 39.920004787702602 ] } },
{ "type": "Feature", "properties": { "OBJECTID": 12, "BLOCK_NAME": "5500 Block of PALETHORP ST", "ZIP_CODE": "19120", "YEAR": "2020", "COMMENTS": null, "DATA_SOURCE": "2020 Playstreets Program" }, "geometry": { "type": "Point", "coordinates": [ -75.124985054141902, 40.0349571957058 ] } },
{ "type": "Feature", "properties": { "OBJECTID": 13, "BLOCK_NAME": "0 Block of N FRAZIER ST", "ZIP_CODE": "19139", "YEAR": "2020", "COMMENTS": "0-99 Street Range", "DATA_SOURCE": "2020 Playstreets Program" }, "geometry": { "type": "Point", "coordinates": [ -75.233978119933298, 39.961933621843201 ] } },
{ "type": "Feature", "properties": { "OBJECTID": 14, "BLOCK_NAME": "100 Block of FARSON ST", "ZIP_CODE": "19139", "YEAR": "2020", "COMMENTS": null, "DATA_SOURCE": "2020 Playstreets Program" }, "geometry": { "type": "Point", "coordinates": [ -75.221422564305996, 39.961966887443999 ] } },
{ "type": "Feature", "properties": { "OBJECTID": 15, "BLOCK_NAME": "3000 Block of N SWANSON ST", "ZIP_CODE": "19134", "YEAR": "2020", "COMMENTS": null, "DATA_SOURCE": "2020 Playstreets Program" }, "geometry": { "type": "Point", "coordinates": [ -75.128326586283194, 39.996029386367397 ] } },
{ "type": "Feature", "properties": { "OBJECTID": 16, "BLOCK_NAME": "3200 Block of W DAKOTA ST", "ZIP_CODE": "19132", "YEAR": "2020", "COMMENTS": null, "DATA_SOURCE": "2020 Playstreets Program" }, "geometry": { "type": "Point", "coordinates": [ -75.185081224334198, 39.991998698828297 ] } },
{ "type": "Feature", "properties": { "OBJECTID": 17, "BLOCK_NAME": "2400 Block of N LAWRENCE ST", "ZIP_CODE": "19133", "YEAR": "2020", "COMMENTS": null, "DATA_SOURCE": "2020 Playstreets Program" }, "geometry": { "type": "Point", "coordinates": [ -75.140097592086306, 39.988147129388402 ] } },
{ "type": "Feature", "properties": { "OBJECTID": 18, "BLOCK_NAME": "5500 Block of BLAKEMORE ST", "ZIP_CODE": "19138", "YEAR": "2020", "COMMENTS": null, "DATA_SOURCE": "2020 Playstreets Program" }, "geometry": { "type": "Point", "coordinates": [ -75.159103024669605, 40.047728744148799 ] } },
{ "type": "Feature", "properties": { "OBJECTID": 19, "BLOCK_NAME": "2800 Block of HOPE ST", "ZIP_CODE": "19133", "YEAR": "2020", "COMMENTS": null, "DATA_SOURCE": "2020 Playstreets Program" }, "geometry": { "type": "Point", "coordinates": [ -75.130941479464695, 39.993296752982602 ] } },
{ "type": "Feature", "properties": { "OBJECTID": 20, "BLOCK_NAME": "1300 Block of N 50TH ST", "ZIP_CODE": "19131", "YEAR": "2020", "COMMENTS": null, "DATA_SOURCE": "2020 Playstreets Program" }, "geometry": { "type": "Point", "coordinates": [ -75.222891592755104, 39.9736604209251 ] } },
{ "type": "Feature", "properties": { "OBJECTID": 21, "BLOCK_NAME": "1300 Block of W CLEMENTINE ST", "ZIP_CODE": "19132", "YEAR": "2020", "COMMENTS": null, "DATA_SOURCE": "2020 Playstreets Program" }, "geometry": { "type": "Point", "coordinates": [ -75.1514381402515, 40.000167254631101 ] } },
{ "type": "Feature", "properties": { "OBJECTID": 22, "BLOCK_NAME": "4900 Block of GRANSBACK ST", "ZIP_CODE": "19120", "YEAR": "2020", "COMMENTS": null, "DATA_SOURCE": "2020 Playstreets Program" }, "geometry": { "type": "Point", "coordinates": [ -75.115140527239006, 40.024268284902398 ] } },
{ "type": "Feature", "properties": { "OBJECTID": 23, "BLOCK_NAME": "4600 Block of HURLEY ST", "ZIP_CODE": "19120", "YEAR": "2020", "COMMENTS": null, "DATA_SOURCE": "2020 Playstreets Program" }, "geometry": { "type": "Point", "coordinates": [ -75.117071149222099, 40.019830327834804 ] } },
{ "type": "Feature", "properties": { "OBJECTID": 24, "BLOCK_NAME": "1400 Block of N HOBART ST", "ZIP_CODE": "19131", "YEAR": "2020", "COMMENTS": null, "DATA_SOURCE": "2020 Playstreets Program" }, "geometry": { "type": "Point", "coordinates": [ -75.237514315589905, 39.973831018140103 ] } },
{ "type": "Feature", "properties": { "OBJECTID": 25, "BLOCK_NAME": "3400 Block of WEIKEL ST", "ZIP_CODE": "19134", "YEAR": "2020", "COMMENTS": null, "DATA_SOURCE": "2020 Playstreets Program" }, "geometry": { "type": "Point", "coordinates": [ -75.101855609030594, 39.993188431273097 ] } },
{ "type": "Feature", "properties": { "OBJECTID": 26, "BLOCK_NAME": "3200 Block of JOYCE ST", "ZIP_CODE": "19134", "YEAR": "2020", "COMMENTS": null, "DATA_SOURCE": "2020 Playstreets Program" }, "geometry": { "type": "Point", "coordinates": [ -75.108591045605706, 39.994385910067102 ] } },
{ "type": "Feature", "properties": { "OBJECTID": 27, "BLOCK_NAME": "5800 Block of DELANCEY ST", "ZIP_CODE": "19143", "YEAR": "2020", "COMMENTS": null, "DATA_SOURCE": "2020 Playstreets Program" }, "geometry": { "type": "Point", "coordinates": [ -75.239040230711495, 39.955655114495102 ] } },
{ "type": "Feature", "properties": { "OBJECTID": 28, "BLOCK_NAME": "2000 Block of N LAMBERT ST", "ZIP_CODE": "19121", "YEAR": "2020", "COMMENTS": null, "DATA_SOURCE": "2020 Playstreets Program" }, "geometry": { "type": "Point", "coordinates": [ -75.167486066550296, 39.9853698850999 ] } },
{ "type": "Feature", "properties": { "OBJECTID": 29, "BLOCK_NAME": "2600 Block of N NAPA ST", "ZIP_CODE": "19132", "YEAR": "2020", "COMMENTS": null, "DATA_SOURCE": "2020 Playstreets Program" }, "geometry": { "type": "Point", "coordinates": [ -75.182520175338297, 39.996738003854503 ] } },
{ "type": "Feature", "properties": { "OBJECTID": 30, "BLOCK_NAME": "3100 Block of N DARIEN ST", "ZIP_CODE": "19133", "YEAR": "2020", "COMMENTS": null, "DATA_SOURCE": "2020 Playstreets Program" }, "geometry": { "type": "Point", "coordinates": [ -75.144102522446204, 39.999651517172303 ] } },
{ "type": "Feature", "properties": { "OBJECTID": 31, "BLOCK_NAME": "200 Block of S EDGEWOOD ST", "ZIP_CODE": "19139", "YEAR": "2020", "COMMENTS": null, "DATA_SOURCE": "2020 Playstreets Program" }, "geometry": { "type": "Point", "coordinates": [ -75.242215341425506, 39.958445112549597 ] } },
{ "type": "Feature", "properties": { "OBJECTID": 32, "BLOCK_NAME": "100 Block of W PALMER ST", "ZIP_CODE": "19122", "YEAR": "2020", "COMMENTS": null, "DATA_SOURCE": "2020 Playstreets Program" }, "geometry": { "type": "Point", "coordinates": [ -75.134277026954194, 39.976376912414999 ] } },
{ "type": "Feature", "properties": { "OBJECTID": 33, "BLOCK_NAME": "2100 Block of SHALLCROSS ST", "ZIP_CODE": "19124", "YEAR": "2020", "COMMENTS": null, "DATA_SOURCE": "2020 Playstreets Program" }, "geometry": { "type": "Point", "coordinates": [ -75.065175191031202, 40.013956522194597 ] } },
{ "type": "Feature", "properties": { "OBJECTID": 34, "BLOCK_NAME": "600 Block of N 54TH ST", "ZIP_CODE": "19131", "YEAR": "2020", "COMMENTS": null, "DATA_SOURCE": "2020 Playstreets Program" }, "geometry": { "type": "Point", "coordinates": [ -75.228472213310297, 39.969693593140597 ] } },
{ "type": "Feature", "properties": { "OBJECTID": 35, "BLOCK_NAME": "4100 Block of MARKLAND ST", "ZIP_CODE": "19124", "YEAR": "2020", "COMMENTS": null, "DATA_SOURCE": "2020 Playstreets Program" }, "geometry": { "type": "Point", "coordinates": [ -75.098967058521296, 40.009558957382303 ] } },
{ "type": "Feature", "properties": { "OBJECTID": 36, "BLOCK_NAME": "6200 Block of N BEECHWOOD ST", "ZIP_CODE": "19138", "YEAR": "2020", "COMMENTS": null, "DATA_SOURCE": "2020 Playstreets Program" }, "geometry": { "type": "Point", "coordinates": [ -75.157082375377996, 40.050111335985299 ] } },
{ "type": "Feature", "properties": { "OBJECTID": 37, "BLOCK_NAME": "2500 Block of N HUTCHINSON ST", "ZIP_CODE": "19133", "YEAR": "2020", "COMMENTS": null, "DATA_SOURCE": "2020 Playstreets Program" }, "geometry": { "type": "Point", "coordinates": [ -75.147155332358395, 39.9909133798254 ] } },
{ "type": "Feature", "properties": { "OBJECTID": 38, "BLOCK_NAME": "2200 Block of N CLEVELAND ST", "ZIP_CODE": "19132", "YEAR": "2020", "COMMENTS": null, "DATA_SOURCE": "2020 Playstreets Program" }, "geometry": { "type": "Point", "coordinates": [ -75.163009760503101, 39.987984659241803 ] } },
{ "type": "Feature", "properties": { "OBJECTID": 39, "BLOCK_NAME": "3600 Block of N MARVINE ST", "ZIP_CODE": "19140", "YEAR": "2020", "COMMENTS": null, "DATA_SOURCE": "2020 Playstreets Program" }, "geometry": { "type": "Point", "coordinates": [ -75.146837726590704, 40.007872146117897 ] } },
{ "type": "Feature", "properties": { "OBJECTID": 40, "BLOCK_NAME": "2000 Block of N 29TH ST", "ZIP_CODE": "19121", "YEAR": "2020", "COMMENTS": null, "DATA_SOURCE": "2020 Playstreets Program" }, "geometry": { "type": "Point", "coordinates": [ -75.180867572581406, 39.986555894142597 ] } },
{ "type": "Feature", "properties": { "OBJECTID": 41, "BLOCK_NAME": "6000 Block of REINHARD ST", "ZIP_CODE": "19142", "YEAR": "2020", "COMMENTS": null, "DATA_SOURCE": "2020 Playstreets Program" }, "geometry": { "type": "Point", "coordinates": [ -75.230796991169598, 39.931458718760197 ] } },
{ "type": "Feature", "properties": { "OBJECTID": 42, "BLOCK_NAME": "2400 Block of TURNER ST", "ZIP_CODE": "19121", "YEAR": "2020", "COMMENTS": null, "DATA_SOURCE": "2020 Playstreets Program" }, "geometry": { "type": "Point", "coordinates": [ -75.175088698541998, 39.979950567029803 ] } },
{ "type": "Feature", "properties": { "OBJECTID": 43, "BLOCK_NAME": "2200 Block of N FRANKLIN ST", "ZIP_CODE": "19133", "YEAR": "2020", "COMMENTS": null, "DATA_SOURCE": "2020 Playstreets Program" }, "geometry": { "type": "Point", "coordinates": [ -75.145956315645407, 39.985782583935503 ] } },
{ "type": "Feature", "properties": { "OBJECTID": 44, "BLOCK_NAME": "1300 Block of W WILLIAM ST", "ZIP_CODE": "19132", "YEAR": "2020", "COMMENTS": null, "DATA_SOURCE": "2020 Playstreets Program" }, "geometry": { "type": "Point", "coordinates": [ -75.152273142658004, 39.996336784022098 ] } },
{ "type": "Feature", "properties": { "OBJECTID": 45, "BLOCK_NAME": "3100 Block of N TAYLOR ST", "ZIP_CODE": "19132", "YEAR": "2020", "COMMENTS": null, "DATA_SOURCE": "2020 Playstreets Program" }, "geometry": { "type": "Point", "coordinates": [ -75.170070332390694, 40.003002514080301 ] } },
{ "type": "Feature", "properties": { "OBJECTID": 46, "BLOCK_NAME": "1200 Block of S BONSALL ST", "ZIP_CODE": "19146", "YEAR": "2020", "COMMENTS": null, "DATA_SOURCE": "2020 Playstreets Program" }, "geometry": { "type": "Point", "coordinates": [ -75.182513448793301, 39.937694483889501 ] } },
{ "type": "Feature", "properties": { "OBJECTID": 47, "BLOCK_NAME": "2600 Block of W HAROLD ST", "ZIP_CODE": "19132", "YEAR": "2020", "COMMENTS": null, "DATA_SOURCE": "2020 Playstreets Program" }, "geometry": { "type": "Point", "coordinates": [ -75.174958415434403, 39.995574823776103 ] } },
{ "type": "Feature", "properties": { "OBJECTID": 48, "BLOCK_NAME": "1500 Block of S DOVER ST", "ZIP_CODE": "19146", "YEAR": "2020", "COMMENTS": null, "DATA_SOURCE": "2020 Playstreets Program" }, "geometry": { "type": "Point", "coordinates": [ -75.1921477134659, 39.934176402945397 ] } },
{ "type": "Feature", "properties": { "OBJECTID": 49, "BLOCK_NAME": "1300 Block of DIVINITY ST", "ZIP_CODE": "19143", "YEAR": "2020", "COMMENTS": null, "DATA_SOURCE": "2020 Playstreets Program" }, "geometry": { "type": "Point", "coordinates": [ -75.215174102911803, 39.940039806153699 ] } },
{ "type": "Feature", "properties": { "OBJECTID": 50, "BLOCK_NAME": "1300 Block of SELLERS ST", "ZIP_CODE": "19124", "YEAR": "2020", "COMMENTS": null, "DATA_SOURCE": "2020 Playstreets Program" }, "geometry": { "type": "Point", "coordinates": [ -75.090507545968194, 40.016149488672902 ] } },
{ "type": "Feature", "properties": { "OBJECTID": 51, "BLOCK_NAME": "1500 Block of N BOUVIER ST", "ZIP_CODE": "19121", "YEAR": "2020", "COMMENTS": null, "DATA_SOURCE": "2020 Playstreets Program" }, "geometry": { "type": "Point", "coordinates": [ -75.163950158942001, 39.977296405303903 ] } },
{ "type": "Feature", "properties": { "OBJECTID": 52, "BLOCK_NAME": "0 Block of E CLAPIER ST", "ZIP_CODE": "19144", "YEAR": "2020", "COMMENTS": "0-99 Street Range", "DATA_SOURCE": "2020 Playstreets Program" }, "geometry": { "type": "Point", "coordinates": [ -75.162253696872995, 40.029958027627799 ] } },
{ "type": "Feature", "properties": { "OBJECTID": 53, "BLOCK_NAME": "2000 Block of S HEMBERGER ST", "ZIP_CODE": "19145", "YEAR": "2020", "COMMENTS": null, "DATA_SOURCE": "2020 Playstreets Program" }, "geometry": { "type": "Point", "coordinates": [ -75.183701278397507, 39.926813011895803 ] } },
{ "type": "Feature", "properties": { "OBJECTID": 54, "BLOCK_NAME": "1700 Block of S TAYLOR ST", "ZIP_CODE": "19145", "YEAR": "2020", "COMMENTS": null, "DATA_SOURCE": "2020 Playstreets Program" }, "geometry": { "type": "Point", "coordinates": [ -75.186133896307894, 39.930895355068699 ] } },
{ "type": "Feature", "properties": { "OBJECTID": 55, "BLOCK_NAME": "800 Block of E HILTON ST", "ZIP_CODE": "19134", "YEAR": "2020", "COMMENTS": null, "DATA_SOURCE": "2020 Playstreets Program" }, "geometry": { "type": "Point", "coordinates": [ -75.1145206760321, 39.997145019397998 ] } },
{ "type": "Feature", "properties": { "OBJECTID": 56, "BLOCK_NAME": "2700 Block of N NEWKIRK ST", "ZIP_CODE": "19132", "YEAR": "2020", "COMMENTS": null, "DATA_SOURCE": "2020 Playstreets Program" }, "geometry": { "type": "Point", "coordinates": [ -75.177332062747098, 39.9977039483475 ] } },
{ "type": "Feature", "properties": { "OBJECTID": 57, "BLOCK_NAME": "2400 Block of N CLEVELAND ST", "ZIP_CODE": "19132", "YEAR": "2020", "COMMENTS": null, "DATA_SOURCE": "2020 Playstreets Program" }, "geometry": { "type": "Point", "coordinates": [ -75.162337238228304, 39.991023988936 ] } },
{ "type": "Feature", "properties": { "OBJECTID": 58, "BLOCK_NAME": "5800 Block of ADDISON ST", "ZIP_CODE": "19143", "YEAR": "2020", "COMMENTS": null, "DATA_SOURCE": "2020 Playstreets Program" }, "geometry": { "type": "Point", "coordinates": [ -75.239359924539798, 39.954149119534499 ] } },
{ "type": "Feature", "properties": { "OBJECTID": 59, "BLOCK_NAME": "200 Block of FURLEY ST", "ZIP_CODE": "19120", "YEAR": "2020", "COMMENTS": null, "DATA_SOURCE": "2020 Playstreets Program" }, "geometry": { "type": "Point", "coordinates": [ -75.125510974165493, 40.038538903004898 ] } },
{ "type": "Feature", "properties": { "OBJECTID": 60, "BLOCK_NAME": "2700 Block of JUDSON ST", "ZIP_CODE": "19132", "YEAR": "2020", "COMMENTS": null, "DATA_SOURCE": "2020 Playstreets Program" }, "geometry": { "type": "Point", "coordinates": [ -75.170025024548295, 39.996763108312301 ] } },
{ "type": "Feature", "properties": { "OBJECTID": 61, "BLOCK_NAME": "2000 Block of N 3RD ST", "ZIP_CODE": "19122", "YEAR": "2020", "COMMENTS": null, "DATA_SOURCE": "2020 Playstreets Program" }, "geometry": { "type": "Point", "coordinates": [ -75.139530269939598, 39.9817352786417 ] } },
{ "type": "Feature", "properties": { "OBJECTID": 62, "BLOCK_NAME": "1100 Block of S WILTON ST", "ZIP_CODE": "19143", "YEAR": "2020", "COMMENTS": null, "DATA_SOURCE": "2020 Playstreets Program" }, "geometry": { "type": "Point", "coordinates": [ -75.222763687564097, 39.942733813020098 ] } },
{ "type": "Feature", "properties": { "OBJECTID": 63, "BLOCK_NAME": "1300 Block of N MYRTLEWOOD ST", "ZIP_CODE": "19121", "YEAR": "2020", "COMMENTS": null, "DATA_SOURCE": "2020 Playstreets Program" }, "geometry": { "type": "Point", "coordinates": [ -75.184034981283006, 39.977094917789799 ] } },
{ "type": "Feature", "properties": { "OBJECTID": 64, "BLOCK_NAME": "1400 Block of S PAXON ST", "ZIP_CODE": "19143", "YEAR": "2020", "COMMENTS": null, "DATA_SOURCE": "2020 Playstreets Program" }, "geometry": { "type": "Point", "coordinates": [ -75.216213946489503, 39.939304620658298 ] } },
{ "type": "Feature", "properties": { "OBJECTID": 65, "BLOCK_NAME": "1400 Block of S VOGDES ST", "ZIP_CODE": "19143", "YEAR": "2020", "COMMENTS": null, "DATA_SOURCE": "2020 Playstreets Program" }, "geometry": { "type": "Point", "coordinates": [ -75.225360315173305, 39.9389075476412 ] } },
{ "type": "Feature", "properties": { "OBJECTID": 66, "BLOCK_NAME": "1500 Block of N MARSHALL ST", "ZIP_CODE": "19122", "YEAR": "2020", "COMMENTS": null, "DATA_SOURCE": "2020 Playstreets Program" }, "geometry": { "type": "Point", "coordinates": [ -75.146477600527504, 39.975035959192397 ] } },
{ "type": "Feature", "properties": { "OBJECTID": 67, "BLOCK_NAME": "1500 Block of S STILLMAN ST", "ZIP_CODE": "19146", "YEAR": "2020", "COMMENTS": null, "DATA_SOURCE": "2020 Playstreets Program" }, "geometry": { "type": "Point", "coordinates": [ -75.187055055192403, 39.933517799107399 ] } },
{ "type": "Feature", "properties": { "OBJECTID": 68, "BLOCK_NAME": "1600 Block of OGDEN ST", "ZIP_CODE": "19130", "YEAR": "2020", "COMMENTS": null, "DATA_SOURCE": "2020 Playstreets Program" }, "geometry": { "type": "Point", "coordinates": [ -75.163756386223696, 39.970086822624097 ] } },
{ "type": "Feature", "properties": { "OBJECTID": 69, "BLOCK_NAME": "1800 Block of N NEWKIRK ST", "ZIP_CODE": "19121", "YEAR": "2020", "COMMENTS": null, "DATA_SOURCE": "2020 Playstreets Program" }, "geometry": { "type": "Point", "coordinates": [ -75.180422860787701, 39.983732350697899 ] } },
{ "type": "Feature", "properties": { "OBJECTID": 70, "BLOCK_NAME": "1800 Block of N TANEY ST", "ZIP_CODE": "19121", "YEAR": "2020", "COMMENTS": null, "DATA_SOURCE": "2020 Playstreets Program" }, "geometry": { "type": "Point", "coordinates": [ -75.177802639457795, 39.983624402112298 ] } },
{ "type": "Feature", "properties": { "OBJECTID": 71, "BLOCK_NAME": "1900 Block of S ALDEN ST", "ZIP_CODE": "19143", "YEAR": "2020", "COMMENTS": null, "DATA_SOURCE": "2020 Playstreets Program" }, "geometry": { "type": "Point", "coordinates": [ -75.227015611482202, 39.935828346000299 ] } },
{ "type": "Feature", "properties": { "OBJECTID": 72, "BLOCK_NAME": "1900 Block of BONITZ ST", "ZIP_CODE": "19140", "YEAR": "2020", "COMMENTS": null, "DATA_SOURCE": "2020 Playstreets Program" }, "geometry": { "type": "Point", "coordinates": [ -75.158116400988902, 40.017756893926098 ] } },
{ "type": "Feature", "properties": { "OBJECTID": 73, "BLOCK_NAME": "1900 Block of N PATTON ST", "ZIP_CODE": "19121", "YEAR": "2020", "COMMENTS": null, "DATA_SOURCE": "2020 Playstreets Program" }, "geometry": { "type": "Point", "coordinates": [ -75.185320524246194, 39.986115725064202 ] } },
{ "type": "Feature", "properties": { "OBJECTID": 74, "BLOCK_NAME": "200 Block of SULIS ST", "ZIP_CODE": "19120", "YEAR": "2020", "COMMENTS": null, "DATA_SOURCE": "2020 Playstreets Program" }, "geometry": { "type": "Point", "coordinates": [ -75.128952549707506, 40.025815925852598 ] } },
{ "type": "Feature", "properties": { "OBJECTID": 75, "BLOCK_NAME": "2000 Block of CARVER ST", "ZIP_CODE": "19124", "YEAR": "2020", "COMMENTS": null, "DATA_SOURCE": "2020 Playstreets Program" }, "geometry": { "type": "Point", "coordinates": [ -75.065794579049793, 40.016504795281399 ] } },
{ "type": "Feature", "properties": { "OBJECTID": 76, "BLOCK_NAME": "2300 Block of W ATLANTIC ST", "ZIP_CODE": "19140", "YEAR": "2020", "COMMENTS": null, "DATA_SOURCE": "2020 Playstreets Program" }, "geometry": { "type": "Point", "coordinates": [ -75.166742359165994, 40.008857301986097 ] } },
{ "type": "Feature", "properties": { "OBJECTID": 77, "BLOCK_NAME": "2500 Block of N COLORADO ST", "ZIP_CODE": "19132", "YEAR": "2020", "COMMENTS": null, "DATA_SOURCE": "2020 Playstreets Program" }, "geometry": { "type": "Point", "coordinates": [ -75.160441004097194, 39.9923019272075 ] } },
{ "type": "Feature", "properties": { "OBJECTID": 78, "BLOCK_NAME": "2500 Block of N MARSTON ST", "ZIP_CODE": "19132", "YEAR": "2020", "COMMENTS": null, "DATA_SOURCE": "2020 Playstreets Program" }, "geometry": { "type": "Point", "coordinates": [ -75.176770096853502, 39.994416043303701 ] } },
{ "type": "Feature", "properties": { "OBJECTID": 79, "BLOCK_NAME": "2500 Block of S GROSS ST", "ZIP_CODE": "19142", "YEAR": "2020", "COMMENTS": null, "DATA_SOURCE": "2020 Playstreets Program" }, "geometry": { "type": "Point", "coordinates": [ -75.2277974920015, 39.923447880965497 ] } },
{ "type": "Feature", "properties": { "OBJECTID": 80, "BLOCK_NAME": "2500 Block of W SILVER ST", "ZIP_CODE": "19132", "YEAR": "2020", "COMMENTS": null, "DATA_SOURCE": "2020 Playstreets Program" }, "geometry": { "type": "Point", "coordinates": [ -75.172972869744498, 39.997170326704897 ] } },
{ "type": "Feature", "properties": { "OBJECTID": 81, "BLOCK_NAME": "2800 Block of MUTTER ST", "ZIP_CODE": "19133", "YEAR": "2020", "COMMENTS": null, "DATA_SOURCE": "2020 Playstreets Program" }, "geometry": { "type": "Point", "coordinates": [ -75.132853480471297, 39.993543443261302 ] } },
{ "type": "Feature", "properties": { "OBJECTID": 82, "BLOCK_NAME": "2900 Block of KIP ST", "ZIP_CODE": "19134", "YEAR": "2020", "COMMENTS": null, "DATA_SOURCE": "2020 Playstreets Program" }, "geometry": { "type": "Point", "coordinates": [ -75.126870768839893, 39.994308778576297 ] } },
{ "type": "Feature", "properties": { "OBJECTID": 83, "BLOCK_NAME": "2900 Block of N CAMAC ST", "ZIP_CODE": "19133", "YEAR": "2020", "COMMENTS": null, "DATA_SOURCE": "2020 Playstreets Program" }, "geometry": { "type": "Point", "coordinates": [ -75.150780681268202, 39.9973438709996 ] } },
{ "type": "Feature", "properties": { "OBJECTID": 84, "BLOCK_NAME": "3000 Block of HARTVILLE ST", "ZIP_CODE": "19134", "YEAR": "2020", "COMMENTS": null, "DATA_SOURCE": "2020 Playstreets Program" }, "geometry": { "type": "Point", "coordinates": [ -75.120315140672304, 39.994995008169298 ] } },
{ "type": "Feature", "properties": { "OBJECTID": 85, "BLOCK_NAME": "3200 Block of HARTVILLE ST", "ZIP_CODE": "19134", "YEAR": "2020", "COMMENTS": null, "DATA_SOURCE": "2020 Playstreets Program" }, "geometry": { "type": "Point", "coordinates": [ -75.119648093648493, 39.998127126516302 ] } },
{ "type": "Feature", "properties": { "OBJECTID": 86, "BLOCK_NAME": "3200 Block of HOPE ST", "ZIP_CODE": "19140", "YEAR": "2020", "COMMENTS": null, "DATA_SOURCE": "2020 Playstreets Program" }, "geometry": { "type": "Point", "coordinates": [ -75.129634707432999, 39.999388483644402 ] } },
{ "type": "Feature", "properties": { "OBJECTID": 87, "BLOCK_NAME": "3400 Block of ELLA ST", "ZIP_CODE": "19134", "YEAR": "2020", "COMMENTS": null, "DATA_SOURCE": "2020 Playstreets Program" }, "geometry": { "type": "Point", "coordinates": [ -75.125866460026003, 40.002044800844502 ] } },
{ "type": "Feature", "properties": { "OBJECTID": 88, "BLOCK_NAME": "3400 Block of ORMES ST", "ZIP_CODE": "19134", "YEAR": "2020", "COMMENTS": null, "DATA_SOURCE": "2020 Playstreets Program" }, "geometry": { "type": "Point", "coordinates": [ -75.123964944698301, 40.001825364468999 ] } },
{ "type": "Feature", "properties": { "OBJECTID": 89, "BLOCK_NAME": "3600 Block of N CAMAC ST", "ZIP_CODE": "19140", "YEAR": "2020", "COMMENTS": null, "DATA_SOURCE": "2020 Playstreets Program" }, "geometry": { "type": "Point", "coordinates": [ -75.148630122995897, 40.008101506733396 ] } },
{ "type": "Feature", "properties": { "OBJECTID": 90, "BLOCK_NAME": "3800 Block of N PERCY ST", "ZIP_CODE": "19140", "YEAR": "2020", "COMMENTS": null, "DATA_SOURCE": "2020 Playstreets Program" }, "geometry": { "type": "Point", "coordinates": [ -75.142822922832295, 40.010570311130202 ] } },
{ "type": "Feature", "properties": { "OBJECTID": 91, "BLOCK_NAME": "4200 Block of GRISCOM ST", "ZIP_CODE": "19124", "YEAR": "2020", "COMMENTS": null, "DATA_SOURCE": "2020 Playstreets Program" }, "geometry": { "type": "Point", "coordinates": [ -75.091885095446102, 40.009624332671798 ] } },
{ "type": "Feature", "properties": { "OBJECTID": 92, "BLOCK_NAME": "4200 Block of ORCHARD ST", "ZIP_CODE": "19124", "YEAR": "2020", "COMMENTS": null, "DATA_SOURCE": "2020 Playstreets Program" }, "geometry": { "type": "Point", "coordinates": [ -75.087329022197196, 40.008629596940999 ] } },
{ "type": "Feature", "properties": { "OBJECTID": 93, "BLOCK_NAME": "4800 Block of N LAWRENCE ST", "ZIP_CODE": "19120", "YEAR": "2020", "COMMENTS": null, "DATA_SOURCE": "2020 Playstreets Program" }, "geometry": { "type": "Point", "coordinates": [ -75.132207710012594, 40.025013840916102 ] } },
{ "type": "Feature", "properties": { "OBJECTID": 94, "BLOCK_NAME": "4900 Block of N FRANKLIN ST", "ZIP_CODE": "19120", "YEAR": "2020", "COMMENTS": null, "DATA_SOURCE": "2020 Playstreets Program" }, "geometry": { "type": "Point", "coordinates": [ -75.136933323021097, 40.027090179445601 ] } },
{ "type": "Feature", "properties": { "OBJECTID": 95, "BLOCK_NAME": "4900 Block of N HUTCHINSON ST", "ZIP_CODE": "19141", "YEAR": "2020", "COMMENTS": null, "DATA_SOURCE": "2020 Playstreets Program" }, "geometry": { "type": "Point", "coordinates": [ -75.139350803497607, 40.0274035838438 ] } },
{ "type": "Feature", "properties": { "OBJECTID": 96, "BLOCK_NAME": "500 Block of N PAXON ST", "ZIP_CODE": "19131", "YEAR": "2020", "COMMENTS": null, "DATA_SOURCE": "2020 Playstreets Program" }, "geometry": { "type": "Point", "coordinates": [ -75.223954434905494, 39.968971491348597 ] } },
{ "type": "Feature", "properties": { "OBJECTID": 97, "BLOCK_NAME": "2700 Block of N REESE ST", "ZIP_CODE": "19133", "YEAR": "2020", "COMMENTS": null, "DATA_SOURCE": "2020 Playstreets Program" }, "geometry": { "type": "Point", "coordinates": [ -75.140692831918699, 39.992974531462998 ] } },
{ "type": "Feature", "properties": { "OBJECTID": 98, "BLOCK_NAME": "5400 Block of MALCOLM ST", "ZIP_CODE": "19143", "YEAR": "2020", "COMMENTS": null, "DATA_SOURCE": "2020 Playstreets Program" }, "geometry": { "type": "Point", "coordinates": [ -75.229774976526002, 39.944414373247099 ] } },
{ "type": "Feature", "properties": { "OBJECTID": 99, "BLOCK_NAME": "5500 Block of HEISKELL ST", "ZIP_CODE": "19144", "YEAR": "2020", "COMMENTS": null, "DATA_SOURCE": "2020 Playstreets Program" }, "geometry": { "type": "Point", "coordinates": [ -75.169485596164293, 40.037755200376502 ] } },
{ "type": "Feature", "properties": { "OBJECTID": 100, "BLOCK_NAME": "600 Block of E WENSLEY ST", "ZIP_CODE": "19134", "YEAR": "2020", "COMMENTS": null, "DATA_SOURCE": "2020 Playstreets Program" }, "geometry": { "type": "Point", "coordinates": [ -75.117863529444094, 39.999506071320098 ] } },
{ "type": "Feature", "properties": { "OBJECTID": 101, "BLOCK_NAME": "800 Block of W BIRCH ST", "ZIP_CODE": "19133", "YEAR": "2020", "COMMENTS": null, "DATA_SOURCE": "2020 Playstreets Program" }, "geometry": { "type": "Point", "coordinates": [ -75.144830223514802, 39.996337660619403 ] } },
{ "type": "Feature", "properties": { "OBJECTID": 102, "BLOCK_NAME": "900 Block of E SCHILLER ST", "ZIP_CODE": "19134", "YEAR": "2020", "COMMENTS": null, "DATA_SOURCE": "2020 Playstreets Program" }, "geometry": { "type": "Point", "coordinates": [ -75.111430950926803, 40.000403262227898 ] } },
{ "type": "Feature", "properties": { "OBJECTID": 103, "BLOCK_NAME": "1400 Block of S BOUVIER ST", "ZIP_CODE": "19146", "YEAR": "2020", "COMMENTS": null, "DATA_SOURCE": "2020 Playstreets Program" }, "geometry": { "type": "Point", "coordinates": [ -75.173805664372395, 39.933074992918101 ] } },
{ "type": "Feature", "properties": { "OBJECTID": 104, "BLOCK_NAME": "4800 Block of PALETHORP ST", "ZIP_CODE": "19120", "YEAR": "2020", "COMMENTS": null, "DATA_SOURCE": "2020 Playstreets Program" }, "geometry": { "type": "Point", "coordinates": [ -75.126809189412796, 40.0241861469665 ] } },
{ "type": "Feature", "properties": { "OBJECTID": 105, "BLOCK_NAME": "1700 Block of N STILLMAN ST", "ZIP_CODE": "19121", "YEAR": "2020", "COMMENTS": null, "DATA_SOURCE": "2020 Playstreets Program" }, "geometry": { "type": "Point", "coordinates": [ -75.176079246786102, 39.981829496176601 ] } },
{ "type": "Feature", "properties": { "OBJECTID": 106, "BLOCK_NAME": "2000 Block of N BAMBREY ST", "ZIP_CODE": "19121", "YEAR": "2020", "COMMENTS": null, "DATA_SOURCE": "2020 Playstreets Program" }, "geometry": { "type": "Point", "coordinates": [ -75.175511980320707, 39.986724165811403 ] } },
{ "type": "Feature", "properties": { "OBJECTID": 107, "BLOCK_NAME": "2300 Block of NICHOLAS ST", "ZIP_CODE": "19121", "YEAR": "2020", "COMMENTS": null, "DATA_SOURCE": "2020 Playstreets Program" }, "geometry": { "type": "Point", "coordinates": [ -75.173415669000804, 39.980169122734203 ] } },
{ "type": "Feature", "properties": { "OBJECTID": 108, "BLOCK_NAME": "3200 Block of CLIFFORD ST", "ZIP_CODE": "19121", "YEAR": "2020", "COMMENTS": null, "DATA_SOURCE": "2020 Playstreets Program" }, "geometry": { "type": "Point", "coordinates": [ -75.186961991611497, 39.9832132151301 ] } },
{ "type": "Feature", "properties": { "OBJECTID": 109, "BLOCK_NAME": "1600 Block of FRENCH ST", "ZIP_CODE": "19121", "YEAR": "2020", "COMMENTS": null, "DATA_SOURCE": "2020 Playstreets Program" }, "geometry": { "type": "Point", "coordinates": [ -75.160366603888406, 39.986330785062002 ] } },
{ "type": "Feature", "properties": { "OBJECTID": 110, "BLOCK_NAME": "2000 Block of N MARSHALL ST", "ZIP_CODE": "19122", "YEAR": "2020", "COMMENTS": null, "DATA_SOURCE": "2020 Playstreets Program" }, "geometry": { "type": "Point", "coordinates": [ -75.145094667555895, 39.982451526027099 ] } },
{ "type": "Feature", "properties": { "OBJECTID": 111, "BLOCK_NAME": "900 Block of CARVER ST", "ZIP_CODE": "19124", "YEAR": "2020", "COMMENTS": null, "DATA_SOURCE": "2020 Playstreets Program" }, "geometry": { "type": "Point", "coordinates": [ -75.089537524881393, 40.033472262783 ] } },
{ "type": "Feature", "properties": { "OBJECTID": 112, "BLOCK_NAME": "1900 Block of WAKELING ST", "ZIP_CODE": "19124", "YEAR": "2020", "COMMENTS": null, "DATA_SOURCE": "2020 Playstreets Program" }, "geometry": { "type": "Point", "coordinates": [ -75.074525017804604, 40.015802517448002 ] } },
{ "type": "Feature", "properties": { "OBJECTID": 113, "BLOCK_NAME": "4600 Block of HAWTHORNE ST", "ZIP_CODE": "19124", "YEAR": "2020", "COMMENTS": null, "DATA_SOURCE": "2020 Playstreets Program" }, "geometry": { "type": "Point", "coordinates": [ -75.081945962985301, 40.013293185559199 ] } },
{ "type": "Feature", "properties": { "OBJECTID": 114, "BLOCK_NAME": "6600 Block of N GRATZ ST", "ZIP_CODE": "19126", "YEAR": "2020", "COMMENTS": null, "DATA_SOURCE": "2020 Playstreets Program" }, "geometry": { "type": "Point", "coordinates": [ -75.148644013012799, 40.055323458381899 ] } },
{ "type": "Feature", "properties": { "OBJECTID": 115, "BLOCK_NAME": "2200 Block of N BANCROFT ST", "ZIP_CODE": "19132", "YEAR": "2020", "COMMENTS": null, "DATA_SOURCE": "2020 Playstreets Program" }, "geometry": { "type": "Point", "coordinates": [ -75.159853931895796, 39.987579294653699 ] } },
{ "type": "Feature", "properties": { "OBJECTID": 116, "BLOCK_NAME": "2500 Block of N MYRTLEWOOD ST", "ZIP_CODE": "19132", "YEAR": "2020", "COMMENTS": null, "DATA_SOURCE": "2020 Playstreets Program" }, "geometry": { "type": "Point", "coordinates": [ -75.180154280729994, 39.994853523270002 ] } },
{ "type": "Feature", "properties": { "OBJECTID": 117, "BLOCK_NAME": "2400 Block of N BOUVIER ST", "ZIP_CODE": "19132", "YEAR": "2020", "COMMENTS": null, "DATA_SOURCE": "2020 Playstreets Program" }, "geometry": { "type": "Point", "coordinates": [ -75.161224493544196, 39.990872181920999 ] } },
{ "type": "Feature", "properties": { "OBJECTID": 118, "BLOCK_NAME": "2700 Block of N OPAL ST", "ZIP_CODE": "19132", "YEAR": "2020", "COMMENTS": null, "DATA_SOURCE": "2020 Playstreets Program" }, "geometry": { "type": "Point", "coordinates": [ -75.163372386528195, 39.995907765708303 ] } },
{ "type": "Feature", "properties": { "OBJECTID": 119, "BLOCK_NAME": "2800 Block of N VAN PELT ST", "ZIP_CODE": "19132", "YEAR": "2020", "COMMENTS": null, "DATA_SOURCE": "2020 Playstreets Program" }, "geometry": { "type": "Point", "coordinates": [ -75.166249103775897, 39.997849074599102 ] } },
{ "type": "Feature", "properties": { "OBJECTID": 120, "BLOCK_NAME": "2000 Block of W STELLA ST", "ZIP_CODE": "19132", "YEAR": "2020", "COMMENTS": null, "DATA_SOURCE": "2020 Playstreets Program" }, "geometry": { "type": "Point", "coordinates": [ -75.164118941204904, 39.999465418926597 ] } },
{ "type": "Feature", "properties": { "OBJECTID": 121, "BLOCK_NAME": "2900 Block of N BAILEY ST", "ZIP_CODE": "19132", "YEAR": "2020", "COMMENTS": null, "DATA_SOURCE": "2020 Playstreets Program" }, "geometry": { "type": "Point", "coordinates": [ -75.173659670881406, 40.000347067365098 ] } },
{ "type": "Feature", "properties": { "OBJECTID": 122, "BLOCK_NAME": "2300 Block of N BEECHWOOD ST", "ZIP_CODE": "19132", "YEAR": "2020", "COMMENTS": null, "DATA_SOURCE": "2020 Playstreets Program" }, "geometry": { "type": "Point", "coordinates": [ -75.168156430762096, 39.990228572355001 ] } },
{ "type": "Feature", "properties": { "OBJECTID": 123, "BLOCK_NAME": "2200 Block of N FAIRHILL ST", "ZIP_CODE": "19133", "YEAR": "2020", "COMMENTS": null, "DATA_SOURCE": "2020 Playstreets Program" }, "geometry": { "type": "Point", "coordinates": [ -75.143017634454793, 39.985404134765403 ] } },
{ "type": "Feature", "properties": { "OBJECTID": 124, "BLOCK_NAME": "2000 Block of E MONMOUTH ST", "ZIP_CODE": "19134", "YEAR": "2020", "COMMENTS": null, "DATA_SOURCE": "2020 Playstreets Program" }, "geometry": { "type": "Point", "coordinates": [ -75.117480805216005, 39.9904494342424 ] } },
{ "type": "Feature", "properties": { "OBJECTID": 125, "BLOCK_NAME": "2800 Block of ORMES ST", "ZIP_CODE": "19134", "YEAR": "2020", "COMMENTS": null, "DATA_SOURCE": "2020 Playstreets Program" }, "geometry": { "type": "Point", "coordinates": [ -75.125845198911506, 39.992455100163298 ] } },
{ "type": "Feature", "properties": { "OBJECTID": 126, "BLOCK_NAME": "7100 Block of VANDIKE ST", "ZIP_CODE": "19135", "YEAR": "2020", "COMMENTS": null, "DATA_SOURCE": "2020 Playstreets Program" }, "geometry": { "type": "Point", "coordinates": [ -75.037887925931599, 40.027976753867797 ] } },
{ "type": "Feature", "properties": { "OBJECTID": 127, "BLOCK_NAME": "5400 Block of IRVING ST", "ZIP_CODE": "19139", "YEAR": "2020", "COMMENTS": null, "DATA_SOURCE": "2020 Playstreets Program" }, "geometry": { "type": "Point", "coordinates": [ -75.230726439751905, 39.955824816222297 ] } },
{ "type": "Feature", "properties": { "OBJECTID": 128, "BLOCK_NAME": "300 Block of N REDFIELD ST", "ZIP_CODE": "19139", "YEAR": "2020", "COMMENTS": null, "DATA_SOURCE": "2020 Playstreets Program" }, "geometry": { "type": "Point", "coordinates": [ -75.238181704481505, 39.967161719640501 ] } },
{ "type": "Feature", "properties": { "OBJECTID": 129, "BLOCK_NAME": "0 Block of N HIRST ST", "ZIP_CODE": "19139", "YEAR": "2020", "COMMENTS": "0-99 Street Range", "DATA_SOURCE": "2020 Playstreets Program" }, "geometry": { "type": "Point", "coordinates": [ -75.245239269267401, 39.963333092661998 ] } },
{ "type": "Feature", "properties": { "OBJECTID": 130, "BLOCK_NAME": "1800 Block of BRUNNER ST", "ZIP_CODE": "19140", "YEAR": "2020", "COMMENTS": null, "DATA_SOURCE": "2020 Playstreets Program" }, "geometry": { "type": "Point", "coordinates": [ -75.156298511680603, 40.018233178604802 ] } },
{ "type": "Feature", "properties": { "OBJECTID": 131, "BLOCK_NAME": "2300 Block of S ITHAN ST", "ZIP_CODE": "19143", "YEAR": "2020", "COMMENTS": null, "DATA_SOURCE": "2020 Playstreets Program" }, "geometry": { "type": "Point", "coordinates": [ -75.2190464445831, 39.931231002036398 ] } },
{ "type": "Feature", "properties": { "OBJECTID": 132, "BLOCK_NAME": "4200 Block of N BODINE ST", "ZIP_CODE": "19140", "YEAR": "2020", "COMMENTS": null, "DATA_SOURCE": "2020 Playstreets Program" }, "geometry": { "type": "Point", "coordinates": [ -75.131573459880798, 40.015410434914898 ] } },
{ "type": "Feature", "properties": { "OBJECTID": 133, "BLOCK_NAME": "4500 Block of N CARLISLE ST", "ZIP_CODE": "19140", "YEAR": "2020", "COMMENTS": null, "DATA_SOURCE": "2020 Playstreets Program" }, "geometry": { "type": "Point", "coordinates": [ -75.149281363755307, 40.022348868949102 ] } },
{ "type": "Feature", "properties": { "OBJECTID": 134, "BLOCK_NAME": "3900 Block of N DELHI ST", "ZIP_CODE": "19140", "YEAR": "2020", "COMMENTS": null, "DATA_SOURCE": "2020 Playstreets Program" }, "geometry": { "type": "Point", "coordinates": [ -75.142964582888993, 40.012123239941999 ] } },
{ "type": "Feature", "properties": { "OBJECTID": 135, "BLOCK_NAME": "4200 Block of N FRANKLIN ST", "ZIP_CODE": "19140", "YEAR": "2020", "COMMENTS": null, "DATA_SOURCE": "2020 Playstreets Program" }, "geometry": { "type": "Point", "coordinates": [ -75.139289536589303, 40.016402646165197 ] } },
{ "type": "Feature", "properties": { "OBJECTID": 136, "BLOCK_NAME": "5700 Block of RODMAN ST", "ZIP_CODE": "19143", "YEAR": "2020", "COMMENTS": null, "DATA_SOURCE": "2020 Playstreets Program" }, "geometry": { "type": "Point", "coordinates": [ -75.237716406590295, 39.952385992024901 ] } },
{ "type": "Feature", "properties": { "OBJECTID": 137, "BLOCK_NAME": "1100 Block of S RUBY ST", "ZIP_CODE": "19143", "YEAR": "2020", "COMMENTS": null, "DATA_SOURCE": "2020 Playstreets Program" }, "geometry": { "type": "Point", "coordinates": [ -75.225660504719798, 39.942758724291203 ] } },
{ "type": "Feature", "properties": { "OBJECTID": 138, "BLOCK_NAME": "1900 Block of MOUNTAIN ST", "ZIP_CODE": "19145", "YEAR": "2020", "COMMENTS": null, "DATA_SOURCE": "2020 Playstreets Program" }, "geometry": { "type": "Point", "coordinates": [ -75.177299386070004, 39.930826914669098 ] } },
{ "type": "Feature", "properties": { "OBJECTID": 139, "BLOCK_NAME": "2000 Block of S CLEVELAND ST", "ZIP_CODE": "19145", "YEAR": "2020", "COMMENTS": null, "DATA_SOURCE": "2020 Playstreets Program" }, "geometry": { "type": "Point", "coordinates": [ -75.176529682281497, 39.925890986219699 ] } },
{ "type": "Feature", "properties": { "OBJECTID": 140, "BLOCK_NAME": "1600 Block of S BAILEY ST", "ZIP_CODE": "19145", "YEAR": "2020", "COMMENTS": null, "DATA_SOURCE": "2020 Playstreets Program" }, "geometry": { "type": "Point", "coordinates": [ -75.188806420860303, 39.932497003006503 ] } },
{ "type": "Feature", "properties": { "OBJECTID": 141, "BLOCK_NAME": "2600 Block of S ISEMINGER ST", "ZIP_CODE": "19148", "YEAR": "2020", "COMMENTS": null, "DATA_SOURCE": "2020 Playstreets Program" }, "geometry": { "type": "Point", "coordinates": [ -75.168558590109001, 39.917121465525703 ] } },
{ "type": "Feature", "properties": { "OBJECTID": 142, "BLOCK_NAME": "1800 Block of S 55TH ST", "ZIP_CODE": "19143", "YEAR": "2020", "COMMENTS": null, "DATA_SOURCE": "2020 Playstreets Program" }, "geometry": { "type": "Point", "coordinates": [ -75.219519708513104, 39.934700647395303 ] } },
{ "type": "Feature", "properties": { "OBJECTID": 143, "BLOCK_NAME": "2400 Block of N 16TH ST", "ZIP_CODE": "19132", "YEAR": "2020", "COMMENTS": null, "DATA_SOURCE": "2020 Playstreets Program" }, "geometry": { "type": "Point", "coordinates": [ -75.158642884566305, 39.990536588998303 ] } },
{ "type": "Feature", "properties": { "OBJECTID": 144, "BLOCK_NAME": "0 Block of REGER ST", "ZIP_CODE": "19144", "YEAR": "2020", "COMMENTS": "0-99 Street Range", "DATA_SOURCE": "2020 Playstreets Program" }, "geometry": { "type": "Point", "coordinates": [ -75.165558367166398, 40.028827315404897 ] } },
{ "type": "Feature", "properties": { "OBJECTID": 145, "BLOCK_NAME": "1500 Block of ROWAN ST", "ZIP_CODE": "19140", "YEAR": "2020", "COMMENTS": null, "DATA_SOURCE": "2020 Playstreets Program" }, "geometry": { "type": "Point", "coordinates": [ -75.151777788138403, 40.019554538601497 ] } },
{ "type": "Feature", "properties": { "OBJECTID": 146, "BLOCK_NAME": "1500 Block of S STANLEY ST", "ZIP_CODE": "19146", "YEAR": "2020", "COMMENTS": null, "DATA_SOURCE": "2020 Playstreets Program" }, "geometry": { "type": "Point", "coordinates": [ -75.195310333508601, 39.934587348212602 ] } },
{ "type": "Feature", "properties": { "OBJECTID": 147, "BLOCK_NAME": "1600 Block of N DOVER ST", "ZIP_CODE": "19121", "YEAR": "2020", "COMMENTS": null, "DATA_SOURCE": "2020 Playstreets Program" }, "geometry": { "type": "Point", "coordinates": [ -75.181460990356101, 39.9810094820022 ] } },
{ "type": "Feature", "properties": { "OBJECTID": 148, "BLOCK_NAME": "1800 Block of CLARENCE ST", "ZIP_CODE": "19134", "YEAR": "2020", "COMMENTS": null, "DATA_SOURCE": "2020 Playstreets Program" }, "geometry": { "type": "Point", "coordinates": [ -75.104852254752103, 39.999440461337997 ] } },
{ "type": "Feature", "properties": { "OBJECTID": 149, "BLOCK_NAME": "1900 Block of BERKSHIRE ST", "ZIP_CODE": "19124", "YEAR": "2020", "COMMENTS": null, "DATA_SOURCE": "2020 Playstreets Program" }, "geometry": { "type": "Point", "coordinates": [ -75.084951489433607, 40.008691780249499 ] } },
{ "type": "Feature", "properties": { "OBJECTID": 150, "BLOCK_NAME": "1900 Block of BRIGGS ST", "ZIP_CODE": "19124", "YEAR": "2020", "COMMENTS": null, "DATA_SOURCE": "2020 Playstreets Program" }, "geometry": { "type": "Point", "coordinates": [ -75.086119004769301, 40.008065516704903 ] } },
{ "type": "Feature", "properties": { "OBJECTID": 151, "BLOCK_NAME": "1900 Block of DALKEITH ST", "ZIP_CODE": "19140", "YEAR": "2020", "COMMENTS": null, "DATA_SOURCE": "2020 Playstreets Program" }, "geometry": { "type": "Point", "coordinates": [ -75.158601091646602, 40.018398251981701 ] } },
{ "type": "Feature", "properties": { "OBJECTID": 152, "BLOCK_NAME": "1900 Block of E THAYER ST", "ZIP_CODE": "19134", "YEAR": "2020", "COMMENTS": null, "DATA_SOURCE": "2020 Playstreets Program" }, "geometry": { "type": "Point", "coordinates": [ -75.107644252958707, 39.996875482213298 ] } },
{ "type": "Feature", "properties": { "OBJECTID": 153, "BLOCK_NAME": "1900 Block of E MONMOUTH ST", "ZIP_CODE": "19134", "YEAR": "2020", "COMMENTS": null, "DATA_SOURCE": "2020 Playstreets Program" }, "geometry": { "type": "Point", "coordinates": [ -75.118183549680097, 39.991356060684197 ] } },
{ "type": "Feature", "properties": { "OBJECTID": 154, "BLOCK_NAME": "200 Block of N HOBART ST", "ZIP_CODE": "19139", "YEAR": "2020", "COMMENTS": null, "DATA_SOURCE": "2020 Playstreets Program" }, "geometry": { "type": "Point", "coordinates": [ -75.237321984230107, 39.965498774961603 ] } },
{ "type": "Feature", "properties": { "OBJECTID": 155, "BLOCK_NAME": "200 Block of RUBICAM ST", "ZIP_CODE": "19120", "YEAR": "2020", "COMMENTS": null, "DATA_SOURCE": "2020 Playstreets Program" }, "geometry": { "type": "Point", "coordinates": [ -75.127962929295904, 40.029271736157 ] } },
{ "type": "Feature", "properties": { "OBJECTID": 156, "BLOCK_NAME": "200 Block of S CECIL ST", "ZIP_CODE": "19139", "YEAR": "2020", "COMMENTS": null, "DATA_SOURCE": "2020 Playstreets Program" }, "geometry": { "type": "Point", "coordinates": [ -75.236939167092999, 39.957794167039303 ] } },
{ "type": "Feature", "properties": { "OBJECTID": 157, "BLOCK_NAME": "2000 Block of E MADISON ST", "ZIP_CODE": "19134", "YEAR": "2020", "COMMENTS": null, "DATA_SOURCE": "2020 Playstreets Program" }, "geometry": { "type": "Point", "coordinates": [ -75.109910078231707, 39.994057330869097 ] } },
{ "type": "Feature", "properties": { "OBJECTID": 158, "BLOCK_NAME": "2100 Block of N NEWKIRK ST", "ZIP_CODE": "19121", "YEAR": "2020", "COMMENTS": null, "DATA_SOURCE": "2020 Playstreets Program" }, "geometry": { "type": "Point", "coordinates": [ -75.179370540097807, 39.988478071539902 ] } },
{ "type": "Feature", "properties": { "OBJECTID": 159, "BLOCK_NAME": "2100 Block of N UBER ST", "ZIP_CODE": "19121", "YEAR": "2020", "COMMENTS": null, "DATA_SOURCE": "2020 Playstreets Program" }, "geometry": { "type": "Point", "coordinates": [ -75.1651492228102, 39.9866506794976 ] } },
{ "type": "Feature", "properties": { "OBJECTID": 160, "BLOCK_NAME": "2200 Block of W ESTAUGH ST", "ZIP_CODE": "19140", "YEAR": "2020", "COMMENTS": null, "DATA_SOURCE": "2020 Playstreets Program" }, "geometry": { "type": "Point", "coordinates": [ -75.165865263602697, 40.0072075892827 ] } },
{ "type": "Feature", "properties": { "OBJECTID": 161, "BLOCK_NAME": "2200 Block of S FELTON ST", "ZIP_CODE": "19142", "YEAR": "2020", "COMMENTS": null, "DATA_SOURCE": "2020 Playstreets Program" }, "geometry": { "type": "Point", "coordinates": [ -75.230553991933803, 39.9272945812261 ] } },
{ "type": "Feature", "properties": { "OBJECTID": 162, "BLOCK_NAME": "2300 Block of N GRATZ ST", "ZIP_CODE": "19132", "YEAR": "2020", "COMMENTS": null, "DATA_SOURCE": "2020 Playstreets Program" }, "geometry": { "type": "Point", "coordinates": [ -75.163115522572397, 39.9895832501184 ] } },
{ "type": "Feature", "properties": { "OBJECTID": 163, "BLOCK_NAME": "2300 Block of W HAGERT ST", "ZIP_CODE": "19132", "YEAR": "2020", "COMMENTS": null, "DATA_SOURCE": "2020 Playstreets Program" }, "geometry": { "type": "Point", "coordinates": [ -75.170683775991407, 39.9920997177123 ] } },
{ "type": "Feature", "properties": { "OBJECTID": 164, "BLOCK_NAME": "2400 Block of N CORLIES ST", "ZIP_CODE": "19132", "YEAR": "2020", "COMMENTS": null, "DATA_SOURCE": "2020 Playstreets Program" }, "geometry": { "type": "Point", "coordinates": [ -75.181603851749202, 39.993511737413897 ] } },
{ "type": "Feature", "properties": { "OBJECTID": 165, "BLOCK_NAME": "2400 Block of N OPAL ST", "ZIP_CODE": "19132", "YEAR": "2020", "COMMENTS": null, "DATA_SOURCE": "2020 Playstreets Program" }, "geometry": { "type": "Point", "coordinates": [ -75.164367112618706, 39.991278469012101 ] } },
{ "type": "Feature", "properties": { "OBJECTID": 166, "BLOCK_NAME": "2700 Block of N WARNOCK ST", "ZIP_CODE": "19133", "YEAR": "2020", "COMMENTS": null, "DATA_SOURCE": "2020 Playstreets Program" }, "geometry": { "type": "Point", "coordinates": [ -75.148288946872, 39.994321186121702 ] } },
{ "type": "Feature", "properties": { "OBJECTID": 167, "BLOCK_NAME": "2800 Block of N DARIEN ST", "ZIP_CODE": "19133", "YEAR": "2020", "COMMENTS": null, "DATA_SOURCE": "2020 Playstreets Program" }, "geometry": { "type": "Point", "coordinates": [ -75.145064400937699, 39.995123474786098 ] } },
{ "type": "Feature", "properties": { "OBJECTID": 168, "BLOCK_NAME": "2900 Block of W CLEMENTINE ST", "ZIP_CODE": "19132", "YEAR": "2020", "COMMENTS": null, "DATA_SOURCE": "2020 Playstreets Program" }, "geometry": { "type": "Point", "coordinates": [ -75.177953670944703, 40.003838000216 ] } },
{ "type": "Feature", "properties": { "OBJECTID": 169, "BLOCK_NAME": "300 Block of W MENTOR ST", "ZIP_CODE": "19120", "YEAR": "2020", "COMMENTS": null, "DATA_SOURCE": "2020 Playstreets Program" }, "geometry": { "type": "Point", "coordinates": [ -75.131051331108793, 40.022965925032999 ] } },
{ "type": "Feature", "properties": { "OBJECTID": 170, "BLOCK_NAME": "3300 Block of N SMEDLEY ST", "ZIP_CODE": "19140", "YEAR": "2020", "COMMENTS": null, "DATA_SOURCE": "2020 Playstreets Program" }, "geometry": { "type": "Point", "coordinates": [ -75.156400212608602, 40.004453633883301 ] } },
{ "type": "Feature", "properties": { "OBJECTID": 171, "BLOCK_NAME": "3600 Block of OLIVE ST", "ZIP_CODE": "19104", "YEAR": "2020", "COMMENTS": null, "DATA_SOURCE": "2020 Playstreets Program" }, "geometry": { "type": "Point", "coordinates": [ -75.195770202109898, 39.966511091463801 ] } },
{ "type": "Feature", "properties": { "OBJECTID": 172, "BLOCK_NAME": "3800 Block of N MARSHALL ST", "ZIP_CODE": "19140", "YEAR": "2020", "COMMENTS": null, "DATA_SOURCE": "2020 Playstreets Program" }, "geometry": { "type": "Point", "coordinates": [ -75.139150604758498, 40.010096276899098 ] } },
{ "type": "Feature", "properties": { "OBJECTID": 173, "BLOCK_NAME": "4000 Block of N DARIEN ST", "ZIP_CODE": "19140", "YEAR": "2020", "COMMENTS": null, "DATA_SOURCE": "2020 Playstreets Program" }, "geometry": { "type": "Point", "coordinates": [ -75.141097792482299, 40.0134293399217 ] } },
{ "type": "Feature", "properties": { "OBJECTID": 174, "BLOCK_NAME": "4400 Block of N MARSHALL ST", "ZIP_CODE": "19140", "YEAR": "2020", "COMMENTS": null, "DATA_SOURCE": "2020 Playstreets Program" }, "geometry": { "type": "Point", "coordinates": [ -75.137431533602395, 40.019285758096899 ] } },
{ "type": "Feature", "properties": { "OBJECTID": 175, "BLOCK_NAME": "4500 Block of N UBER ST", "ZIP_CODE": "19140", "YEAR": "2020", "COMMENTS": null, "DATA_SOURCE": "2020 Playstreets Program" }, "geometry": { "type": "Point", "coordinates": [ -75.157139090877905, 40.023357426292399 ] } },
{ "type": "Feature", "properties": { "OBJECTID": 176, "BLOCK_NAME": "4600 Block of DITMAN ST", "ZIP_CODE": "19124", "YEAR": "2020", "COMMENTS": null, "DATA_SOURCE": "2020 Playstreets Program" }, "geometry": { "type": "Point", "coordinates": [ -75.079985850596401, 40.011611101505899 ] } },
{ "type": "Feature", "properties": { "OBJECTID": 177, "BLOCK_NAME": "500 Block of W CORNWALL ST", "ZIP_CODE": "19140", "YEAR": "2020", "COMMENTS": null, "DATA_SOURCE": "2020 Playstreets Program" }, "geometry": { "type": "Point", "coordinates": [ -75.139030105481893, 40.001978625873598 ] } },
{ "type": "Feature", "properties": { "OBJECTID": 178, "BLOCK_NAME": "5100 Block of HENLEY ST", "ZIP_CODE": "19144", "YEAR": "2020", "COMMENTS": null, "DATA_SOURCE": "2020 Playstreets Program" }, "geometry": { "type": "Point", "coordinates": [ -75.169614523148496, 40.027250322707502 ] } },
{ "type": "Feature", "properties": { "OBJECTID": 179, "BLOCK_NAME": "5400 Block of REGENT ST", "ZIP_CODE": "19143", "YEAR": "2020", "COMMENTS": null, "DATA_SOURCE": "2020 Playstreets Program" }, "geometry": { "type": "Point", "coordinates": [ -75.222781043633503, 39.938519731742304 ] } },
{ "type": "Feature", "properties": { "OBJECTID": 180, "BLOCK_NAME": "5700 Block of REEDLAND ST", "ZIP_CODE": "19143", "YEAR": "2020", "COMMENTS": null, "DATA_SOURCE": "2020 Playstreets Program" }, "geometry": { "type": "Point", "coordinates": [ -75.220416549986695, 39.9299599251937 ] } },
{ "type": "Feature", "properties": { "OBJECTID": 181, "BLOCK_NAME": "5800 Block of MONTROSE ST", "ZIP_CODE": "19143", "YEAR": "2020", "COMMENTS": null, "DATA_SOURCE": "2020 Playstreets Program" }, "geometry": { "type": "Point", "coordinates": [ -75.240531539900104, 39.948526878600497 ] } },
{ "type": "Feature", "properties": { "OBJECTID": 182, "BLOCK_NAME": "5800 Block of N MARSHALL ST", "ZIP_CODE": "19120", "YEAR": "2020", "COMMENTS": null, "DATA_SOURCE": "2020 Playstreets Program" }, "geometry": { "type": "Point", "coordinates": [ -75.132425576041996, 40.040833444468902 ] } },
{ "type": "Feature", "properties": { "OBJECTID": 183, "BLOCK_NAME": "6400 Block of N BEECHWOOD ST", "ZIP_CODE": "19138", "YEAR": "2020", "COMMENTS": null, "DATA_SOURCE": "2020 Playstreets Program" }, "geometry": { "type": "Point", "coordinates": [ -75.156929577008398, 40.052485523876797 ] } },
{ "type": "Feature", "properties": { "OBJECTID": 184, "BLOCK_NAME": "1600 Block of SWAIN ST", "ZIP_CODE": "19130", "YEAR": "2020", "COMMENTS": null, "DATA_SOURCE": "2020 Playstreets Program" }, "geometry": { "type": "Point", "coordinates": [ -75.164155169649902, 39.967874191239602 ] } },
{ "type": "Feature", "properties": { "OBJECTID": 185, "BLOCK_NAME": "1200 Block of N HOLLYWOOD ST", "ZIP_CODE": "19121", "YEAR": "2020", "COMMENTS": null, "DATA_SOURCE": "2020 Playstreets Program" }, "geometry": { "type": "Point", "coordinates": [ -75.183808947101497, 39.975877218488698 ] } },
{ "type": "Feature", "properties": { "OBJECTID": 186, "BLOCK_NAME": "3000 Block of W HARPER ST", "ZIP_CODE": "19130", "YEAR": "2020", "COMMENTS": null, "DATA_SOURCE": "2020 Playstreets Program" }, "geometry": { "type": "Point", "coordinates": [ -75.185840358241705, 39.974366161811702 ] } },
{ "type": "Feature", "properties": { "OBJECTID": 187, "BLOCK_NAME": "1300 Block of N 27TH ST", "ZIP_CODE": "19121", "YEAR": "2020", "COMMENTS": null, "DATA_SOURCE": "2020 Playstreets Program" }, "geometry": { "type": "Point", "coordinates": [ -75.179932756261607, 39.976488061168801 ] } },
{ "type": "Feature", "properties": { "OBJECTID": 188, "BLOCK_NAME": "1800 Block of MC CLELLAN ST", "ZIP_CODE": "19145", "YEAR": "2020", "COMMENTS": null, "DATA_SOURCE": "2020 Playstreets Program" }, "geometry": { "type": "Point", "coordinates": [ -75.176175395615999, 39.928547547834597 ] } },
{ "type": "Feature", "properties": { "OBJECTID": 189, "BLOCK_NAME": "1500 Block of S BAMBREY ST", "ZIP_CODE": "19146", "YEAR": "2020", "COMMENTS": null, "DATA_SOURCE": "2020 Playstreets Program" }, "geometry": { "type": "Point", "coordinates": [ -75.187478885323898, 39.933570197780099 ] } },
{ "type": "Feature", "properties": { "OBJECTID": 190, "BLOCK_NAME": "2000 Block of MERCY ST", "ZIP_CODE": "19145", "YEAR": "2020", "COMMENTS": null, "DATA_SOURCE": "2020 Playstreets Program" }, "geometry": { "type": "Point", "coordinates": [ -75.180102783087193, 39.926173978442698 ] } },
{ "type": "Feature", "properties": { "OBJECTID": 191, "BLOCK_NAME": "2200 Block of S BUCKNELL ST", "ZIP_CODE": "19145", "YEAR": "2020", "COMMENTS": null, "DATA_SOURCE": "2020 Playstreets Program" }, "geometry": { "type": "Point", "coordinates": [ -75.185874490580005, 39.924551543272798 ] } },
{ "type": "Feature", "properties": { "OBJECTID": 192, "BLOCK_NAME": "400 Block of E ELEANOR ST", "ZIP_CODE": "19120", "YEAR": "2020", "COMMENTS": null, "DATA_SOURCE": "2020 Playstreets Program" }, "geometry": { "type": "Point", "coordinates": [ -75.116915461909699, 40.022997389147903 ] } },
{ "type": "Feature", "properties": { "OBJECTID": 193, "BLOCK_NAME": "2300 Block of N BOUVIER ST", "ZIP_CODE": "19132", "YEAR": "2020", "COMMENTS": null, "DATA_SOURCE": "2020 Playstreets Program" }, "geometry": { "type": "Point", "coordinates": [ -75.161552639511299, 39.989376474002803 ] } },
{ "type": "Feature", "properties": { "OBJECTID": 194, "BLOCK_NAME": "2200 Block of N BOUVIER ST", "ZIP_CODE": "19132", "YEAR": "2020", "COMMENTS": null, "DATA_SOURCE": "2020 Playstreets Program" }, "geometry": { "type": "Point", "coordinates": [ -75.161886051140698, 39.9878406024065 ] } },
{ "type": "Feature", "properties": { "OBJECTID": 195, "BLOCK_NAME": "4900 Block of N CAMAC ST", "ZIP_CODE": "19141", "YEAR": "2020", "COMMENTS": null, "DATA_SOURCE": "2020 Playstreets Program" }, "geometry": { "type": "Point", "coordinates": [ -75.144080270033101, 40.028011027188001 ] } },
{ "type": "Feature", "properties": { "OBJECTID": 196, "BLOCK_NAME": "4300 Block of N DARIEN ST", "ZIP_CODE": "19140", "YEAR": "2020", "COMMENTS": null, "DATA_SOURCE": "2020 Playstreets Program" }, "geometry": { "type": "Point", "coordinates": [ -75.140086638889898, 40.018091513571697 ] } },
{ "type": "Feature", "properties": { "OBJECTID": 197, "BLOCK_NAME": "5300 Block of EUCLID ST", "ZIP_CODE": "19131", "YEAR": "2020", "COMMENTS": null, "DATA_SOURCE": "2020 Playstreets Program" }, "geometry": { "type": "Point", "coordinates": [ -75.229621411497405, 39.985697402941 ] } },
{ "type": "Feature", "properties": { "OBJECTID": 198, "BLOCK_NAME": "4500 Block of HURLEY ST", "ZIP_CODE": "19120", "YEAR": "2020", "COMMENTS": null, "DATA_SOURCE": "2020 Playstreets Program" }, "geometry": { "type": "Point", "coordinates": [ -75.117242345145897, 40.018234949050701 ] } },
{ "type": "Feature", "properties": { "OBJECTID": 199, "BLOCK_NAME": "3100 Block of N STILLMAN ST", "ZIP_CODE": "19132", "YEAR": "2020", "COMMENTS": null, "DATA_SOURCE": "2020 Playstreets Program" }, "geometry": { "type": "Point", "coordinates": [ -75.171422928178004, 40.003173554869001 ] } },
{ "type": "Feature", "properties": { "OBJECTID": 200, "BLOCK_NAME": "2800 Block of W HUNTINGDON ST", "ZIP_CODE": "19132", "YEAR": "2020", "COMMENTS": null, "DATA_SOURCE": "2020 Playstreets Program" }, "geometry": { "type": "Point", "coordinates": [ -75.177582814728893, 39.995280443413002 ] } },
{ "type": "Feature", "properties": { "OBJECTID": 201, "BLOCK_NAME": "3000 Block of N SYDENHAM ST", "ZIP_CODE": "19132", "YEAR": "2020", "COMMENTS": null, "DATA_SOURCE": "2020 Playstreets Program" }, "geometry": { "type": "Point", "coordinates": [ -75.155853626101106, 39.999584101533799 ] } },
{ "type": "Feature", "properties": { "OBJECTID": 202, "BLOCK_NAME": "2500 Block of N CHADWICK ST", "ZIP_CODE": "19132", "YEAR": "2020", "COMMENTS": null, "DATA_SOURCE": "2020 Playstreets Program" }, "geometry": { "type": "Point", "coordinates": [ -75.159319688075897, 39.992161731881701 ] } },
{ "type": "Feature", "properties": { "OBJECTID": 203, "BLOCK_NAME": "1700 Block of N MARSTON ST", "ZIP_CODE": "19121", "YEAR": "2020", "COMMENTS": null, "DATA_SOURCE": "2020 Playstreets Program" }, "geometry": { "type": "Point", "coordinates": [ -75.179493269077497, 39.982038246602499 ] } },
{ "type": "Feature", "properties": { "OBJECTID": 204, "BLOCK_NAME": "1700 Block of LATONA ST", "ZIP_CODE": "19146", "YEAR": "2020", "COMMENTS": null, "DATA_SOURCE": "2020 Playstreets Program" }, "geometry": { "type": "Point", "coordinates": [ -75.172996030487397, 39.935739294471901 ] } },
{ "type": "Feature", "properties": { "OBJECTID": 205, "BLOCK_NAME": "1500 Block of S 27TH ST", "ZIP_CODE": "19146", "YEAR": "2020", "COMMENTS": null, "DATA_SOURCE": "2020 Playstreets Program" }, "geometry": { "type": "Point", "coordinates": [ -75.189554543137504, 39.9338375665535 ] } },
{ "type": "Feature", "properties": { "OBJECTID": 206, "BLOCK_NAME": "2700 Block of N CROSKEY ST", "ZIP_CODE": "19132", "YEAR": "2020", "COMMENTS": null, "DATA_SOURCE": "2020 Playstreets Program" }, "geometry": { "type": "Point", "coordinates": [ -75.167969475653805, 39.9964945559638 ] } },
{ "type": "Feature", "properties": { "OBJECTID": 207, "BLOCK_NAME": "2700 Block of W SILVER ST", "ZIP_CODE": "19132", "YEAR": "2020", "COMMENTS": null, "DATA_SOURCE": "2020 Playstreets Program" }, "geometry": { "type": "Point", "coordinates": [ -75.176061636934506, 39.997579368943498 ] } },
{ "type": "Feature", "properties": { "OBJECTID": 208, "BLOCK_NAME": "2200 Block of N LAMBERT ST", "ZIP_CODE": "19132", "YEAR": "2020", "COMMENTS": null, "DATA_SOURCE": "2020 Playstreets Program" }, "geometry": { "type": "Point", "coordinates": [ -75.166806254707197, 39.988469790600803 ] } },
{ "type": "Feature", "properties": { "OBJECTID": 209, "BLOCK_NAME": "2900 Block of EDGLEY ST", "ZIP_CODE": "19121", "YEAR": "2020", "COMMENTS": null, "DATA_SOURCE": "2020 Playstreets Program" }, "geometry": { "type": "Point", "coordinates": [ -75.181314892817994, 39.988333761634998 ] } },
{ "type": "Feature", "properties": { "OBJECTID": 210, "BLOCK_NAME": "4500 Block of REGENT ST", "ZIP_CODE": "19143", "YEAR": "2020", "COMMENTS": null, "DATA_SOURCE": "2020 Playstreets Program" }, "geometry": { "type": "Point", "coordinates": [ -75.211387526029796, 39.9468062526228 ] } },
{ "type": "Feature", "properties": { "OBJECTID": 211, "BLOCK_NAME": "4000 Block of CLARIDGE ST", "ZIP_CODE": "19124", "YEAR": "2020", "COMMENTS": null, "DATA_SOURCE": "2020 Playstreets Program" }, "geometry": { "type": "Point", "coordinates": [ -75.103991793469504, 40.008633906352003 ] } },
{ "type": "Feature", "properties": { "OBJECTID": 212, "BLOCK_NAME": "5200 Block of DITMAN ST", "ZIP_CODE": "19124", "YEAR": "2020", "COMMENTS": null, "DATA_SOURCE": "2020 Playstreets Program" }, "geometry": { "type": "Point", "coordinates": [ -75.069876091277905, 40.014591159822103 ] } },
{ "type": "Feature", "properties": { "OBJECTID": 213, "BLOCK_NAME": "3400 Block of PALMETTO ST", "ZIP_CODE": "19134", "YEAR": "2020", "COMMENTS": null, "DATA_SOURCE": "2020 Playstreets Program" }, "geometry": { "type": "Point", "coordinates": [ -75.109731619159007, 40.000365806758303 ] } },
{ "type": "Feature", "properties": { "OBJECTID": 214, "BLOCK_NAME": "6300 Block of HOMER ST", "ZIP_CODE": "19144", "YEAR": "2020", "COMMENTS": null, "DATA_SOURCE": "2020 Playstreets Program" }, "geometry": { "type": "Point", "coordinates": [ -75.176817293241101, 40.048358248360202 ] } },
{ "type": "Feature", "properties": { "OBJECTID": 215, "BLOCK_NAME": "2000 Block of E PACIFIC ST", "ZIP_CODE": "19134", "YEAR": "2020", "COMMENTS": null, "DATA_SOURCE": "2020 Playstreets Program" }, "geometry": { "type": "Point", "coordinates": [ -75.099946338686195, 39.998219658717503 ] } },
{ "type": "Feature", "properties": { "OBJECTID": 216, "BLOCK_NAME": "5100 Block of DUFFIELD ST", "ZIP_CODE": "19124", "YEAR": "2020", "COMMENTS": null, "DATA_SOURCE": "2020 Playstreets Program" }, "geometry": { "type": "Point", "coordinates": [ -75.076466190047, 40.020185741562202 ] } },
{ "type": "Feature", "properties": { "OBJECTID": 217, "BLOCK_NAME": "3100 Block of N SHERIDAN ST", "ZIP_CODE": "19133", "YEAR": "2020", "COMMENTS": null, "DATA_SOURCE": "2020 Playstreets Program" }, "geometry": { "type": "Point", "coordinates": [ -75.141744938077196, 39.9993441340076 ] } },
{ "type": "Feature", "properties": { "OBJECTID": 218, "BLOCK_NAME": "5800 Block of TRINITY ST", "ZIP_CODE": "19143", "YEAR": "2020", "COMMENTS": null, "DATA_SOURCE": "2020 Playstreets Program" }, "geometry": { "type": "Point", "coordinates": [ -75.229820257569898, 39.935766122819601 ] } },
{ "type": "Feature", "properties": { "OBJECTID": 219, "BLOCK_NAME": "1100 Block of W HILTON ST", "ZIP_CODE": "19140", "YEAR": "2020", "COMMENTS": null, "DATA_SOURCE": "2020 Playstreets Program" }, "geometry": { "type": "Point", "coordinates": [ -75.149515805942201, 40.001907544827802 ] } },
{ "type": "Feature", "properties": { "OBJECTID": 220, "BLOCK_NAME": "2500 Block of N MARSHALL ST", "ZIP_CODE": "19133", "YEAR": "2020", "COMMENTS": null, "DATA_SOURCE": "2020 Playstreets Program" }, "geometry": { "type": "Point", "coordinates": [ -75.143509491382105, 39.9901218568342 ] } },
{ "type": "Feature", "properties": { "OBJECTID": 221, "BLOCK_NAME": "3700 Block of N DELHI ST", "ZIP_CODE": "19140", "YEAR": "2020", "COMMENTS": null, "DATA_SOURCE": "2020 Playstreets Program" }, "geometry": { "type": "Point", "coordinates": [ -75.143627741311306, 40.009090429681102 ] } },
{ "type": "Feature", "properties": { "OBJECTID": 222, "BLOCK_NAME": "3600 Block of N PERCY ST", "ZIP_CODE": "19140", "YEAR": "2020", "COMMENTS": null, "DATA_SOURCE": "2020 Playstreets Program" }, "geometry": { "type": "Point", "coordinates": [ -75.143538145832693, 40.007444882933598 ] } },
{ "type": "Feature", "properties": { "OBJECTID": 223, "BLOCK_NAME": "3900 Block of N DARIEN ST", "ZIP_CODE": "19140", "YEAR": "2020", "COMMENTS": null, "DATA_SOURCE": "2020 Playstreets Program" }, "geometry": { "type": "Point", "coordinates": [ -75.141421156132907, 40.011936484424702 ] } },
{ "type": "Feature", "properties": { "OBJECTID": 224, "BLOCK_NAME": "5500 Block of WHEELER ST", "ZIP_CODE": "19143", "YEAR": "2020", "COMMENTS": null, "DATA_SOURCE": "2020 Playstreets Program" }, "geometry": { "type": "Point", "coordinates": [ -75.217492808052796, 39.932204771127097 ] } },
{ "type": "Feature", "properties": { "OBJECTID": 225, "BLOCK_NAME": "1900 Block of S ITHAN ST", "ZIP_CODE": "19143", "YEAR": "2020", "COMMENTS": null, "DATA_SOURCE": "2020 Playstreets Program" }, "geometry": { "type": "Point", "coordinates": [ -75.224209283615195, 39.9357337403316 ] } },
{ "type": "Feature", "properties": { "OBJECTID": 226, "BLOCK_NAME": "2500 Block of HOBSON ST", "ZIP_CODE": "19142", "YEAR": "2020", "COMMENTS": null, "DATA_SOURCE": "2020 Playstreets Program" }, "geometry": { "type": "Point", "coordinates": [ -75.233187802406405, 39.9191215384797 ] } },
{ "type": "Feature", "properties": { "OBJECTID": 227, "BLOCK_NAME": "2600 Block of HOLBROOK ST", "ZIP_CODE": "19142", "YEAR": "2020", "COMMENTS": null, "DATA_SOURCE": "2020 Playstreets Program" }, "geometry": { "type": "Point", "coordinates": [ -75.2358698055818, 39.915078873500001 ] } },
{ "type": "Feature", "properties": { "OBJECTID": 228, "BLOCK_NAME": "2000 Block of S CECIL ST", "ZIP_CODE": "19143", "YEAR": "2020", "COMMENTS": null, "DATA_SOURCE": "2020 Playstreets Program" }, "geometry": { "type": "Point", "coordinates": [ -75.2260748923824, 39.934420511958898 ] } },
{ "type": "Feature", "properties": { "OBJECTID": 229, "BLOCK_NAME": "6100 Block of WHEELER ST", "ZIP_CODE": "19142", "YEAR": "2020", "COMMENTS": null, "DATA_SOURCE": "2020 Playstreets Program" }, "geometry": { "type": "Point", "coordinates": [ -75.226584357742396, 39.926227060949003 ] } },
{ "type": "Feature", "properties": { "OBJECTID": 230, "BLOCK_NAME": "5500 Block of PEMBERTON ST", "ZIP_CODE": "19143", "YEAR": "2020", "COMMENTS": null, "DATA_SOURCE": "2020 Playstreets Program" }, "geometry": { "type": "Point", "coordinates": [ -75.233940614476793, 39.950778603143803 ] } },
{ "type": "Feature", "properties": { "OBJECTID": 231, "BLOCK_NAME": "5600 Block of WALTON AVE", "ZIP_CODE": "19143", "YEAR": "2020", "COMMENTS": null, "DATA_SOURCE": "2020 Playstreets Program" }, "geometry": { "type": "Point", "coordinates": [ -75.236063058896605, 39.9505857071441 ] } },
{ "type": "Feature", "properties": { "OBJECTID": 232, "BLOCK_NAME": "5900 Block of WALTON AVE", "ZIP_CODE": "19143", "YEAR": "2020", "COMMENTS": null, "DATA_SOURCE": "2020 Playstreets Program" }, "geometry": { "type": "Point", "coordinates": [ -75.241917965755405, 39.951592243114902 ] } },
{ "type": "Feature", "properties": { "OBJECTID": 233, "BLOCK_NAME": "6400 Block of GLENMORE AVE", "ZIP_CODE": "19142", "YEAR": "2020", "COMMENTS": null, "DATA_SOURCE": "2020 Playstreets Program" }, "geometry": { "type": "Point", "coordinates": [ -75.231513482192099, 39.924148290338302 ] } },
{ "type": "Feature", "properties": { "OBJECTID": 234, "BLOCK_NAME": "6200 Block of REEDLAND ST", "ZIP_CODE": "19142", "YEAR": "2020", "COMMENTS": null, "DATA_SOURCE": "2020 Playstreets Program" }, "geometry": { "type": "Point", "coordinates": [ -75.227627834546396, 39.924909210727797 ] } },
{ "type": "Feature", "properties": { "OBJECTID": 235, "BLOCK_NAME": "6300 Block of REEDLAND ST", "ZIP_CODE": "19142", "YEAR": "2020", "COMMENTS": null, "DATA_SOURCE": "2020 Playstreets Program" }, "geometry": { "type": "Point", "coordinates": [ -75.228910457551805, 39.923989224265902 ] } },
{ "type": "Feature", "properties": { "OBJECTID": 236, "BLOCK_NAME": "6300 Block of THEODORE ST", "ZIP_CODE": "19142", "YEAR": "2020", "COMMENTS": null, "DATA_SOURCE": "2020 Playstreets Program" }, "geometry": { "type": "Point", "coordinates": [ -75.227449122406497, 39.922767280269603 ] } },
{ "type": "Feature", "properties": { "OBJECTID": 237, "BLOCK_NAME": "5800 Block of ALTER ST", "ZIP_CODE": "19143", "YEAR": "2020", "COMMENTS": null, "DATA_SOURCE": "2020 Playstreets Program" }, "geometry": { "type": "Point", "coordinates": [ -75.240843470881103, 39.947010783746997 ] } },
{ "type": "Feature", "properties": { "OBJECTID": 238, "BLOCK_NAME": "2100 Block of E BIRCH ST", "ZIP_CODE": "19134", "YEAR": "2020", "COMMENTS": null, "DATA_SOURCE": "2020 Playstreets Program" }, "geometry": { "type": "Point", "coordinates": [ -75.115441017062807, 39.9885253826235 ] } },
{ "type": "Feature", "properties": { "OBJECTID": 239, "BLOCK_NAME": "3400 Block of DILLMAN ST", "ZIP_CODE": "19140", "YEAR": "2020", "COMMENTS": null, "DATA_SOURCE": "2020 Playstreets Program" }, "geometry": { "type": "Point", "coordinates": [ -75.133402257362903, 40.003020228181903 ] } },
{ "type": "Feature", "properties": { "OBJECTID": 240, "BLOCK_NAME": "3400 Block of N PHILIP ST", "ZIP_CODE": "19140", "YEAR": "2020", "COMMENTS": null, "DATA_SOURCE": "2020 Playstreets Program" }, "geometry": { "type": "Point", "coordinates": [ -75.133012408619393, 40.002968725156499 ] } },
{ "type": "Feature", "properties": { "OBJECTID": 241, "BLOCK_NAME": "3300 Block of N LAWRENCE ST", "ZIP_CODE": "19140", "YEAR": "2020", "COMMENTS": null, "DATA_SOURCE": "2020 Playstreets Program" }, "geometry": { "type": "Point", "coordinates": [ -75.137091166032107, 40.001964936856901 ] } },
{ "type": "Feature", "properties": { "OBJECTID": 242, "BLOCK_NAME": "3000 Block of CORAL ST", "ZIP_CODE": "19134", "YEAR": "2020", "COMMENTS": null, "DATA_SOURCE": "2020 Playstreets Program" }, "geometry": { "type": "Point", "coordinates": [ -75.113154823397707, 39.990977771208499 ] } },
{ "type": "Feature", "properties": { "OBJECTID": 243, "BLOCK_NAME": "300 Block of E CORNWALL ST", "ZIP_CODE": "19134", "YEAR": "2020", "COMMENTS": null, "DATA_SOURCE": "2020 Playstreets Program" }, "geometry": { "type": "Point", "coordinates": [ -75.124428237662698, 40.000056573717501 ] } },
{ "type": "Feature", "properties": { "OBJECTID": 244, "BLOCK_NAME": "3200 Block of N PHILIP ST", "ZIP_CODE": "19140", "YEAR": "2020", "COMMENTS": null, "DATA_SOURCE": "2020 Playstreets Program" }, "geometry": { "type": "Point", "coordinates": [ -75.133662109852807, 39.999934557259401 ] } },
{ "type": "Feature", "properties": { "OBJECTID": 245, "BLOCK_NAME": "2500 Block of S MARSHALL ST", "ZIP_CODE": "19148", "YEAR": "2020", "COMMENTS": null, "DATA_SOURCE": "2020 Playstreets Program" }, "geometry": { "type": "Point", "coordinates": [ -75.158382442224095, 39.917168306747598 ] } },
{ "type": "Feature", "properties": { "OBJECTID": 246, "BLOCK_NAME": "1900 Block of SPARKS ST", "ZIP_CODE": "19141", "YEAR": "2020", "COMMENTS": null, "DATA_SOURCE": "2020 Playstreets Program" }, "geometry": { "type": "Point", "coordinates": [ -75.152257474160393, 40.047909197823998 ] } },
{ "type": "Feature", "properties": { "OBJECTID": 247, "BLOCK_NAME": "1800 Block of ROSELYN ST", "ZIP_CODE": "19141", "YEAR": "2020", "COMMENTS": null, "DATA_SOURCE": "2020 Playstreets Program" }, "geometry": { "type": "Point", "coordinates": [ -75.151043204344703, 40.045697837320397 ] } },
{ "type": "Feature", "properties": { "OBJECTID": 248, "BLOCK_NAME": "5500 Block of CROWSON ST", "ZIP_CODE": "19144", "YEAR": "2020", "COMMENTS": null, "DATA_SOURCE": "2020 Playstreets Program" }, "geometry": { "type": "Point", "coordinates": [ -75.162374251845193, 40.043385627054001 ] } },
{ "type": "Feature", "properties": { "OBJECTID": 249, "BLOCK_NAME": "1600 Block of N MARSHALL ST", "ZIP_CODE": "19122", "YEAR": "2020", "COMMENTS": null, "DATA_SOURCE": "2020 Playstreets Program" }, "geometry": { "type": "Point", "coordinates": [ -75.146212788176001, 39.976459467776799 ] } },
{ "type": "Feature", "properties": { "OBJECTID": 250, "BLOCK_NAME": "2000 Block of E RITTENHOUSE ST", "ZIP_CODE": "19138", "YEAR": "2020", "COMMENTS": null, "DATA_SOURCE": "2020 Playstreets Program" }, "geometry": { "type": "Point", "coordinates": [ -75.151703080421598, 40.058055828324598 ] } },
{ "type": "Feature", "properties": { "OBJECTID": 251, "BLOCK_NAME": "1400 Block of SPARKS ST", "ZIP_CODE": "19141", "YEAR": "2020", "COMMENTS": null, "DATA_SOURCE": "2020 Playstreets Program" }, "geometry": { "type": "Point", "coordinates": [ -75.144257476733301, 40.046610494013798 ] } },
{ "type": "Feature", "properties": { "OBJECTID": 252, "BLOCK_NAME": "2300 Block of N 12TH ST", "ZIP_CODE": "19133", "YEAR": "2020", "COMMENTS": null, "DATA_SOURCE": "2020 Playstreets Program" }, "geometry": { "type": "Point", "coordinates": [ -75.151978179949793, 39.988146363845701 ] } },
{ "type": "Feature", "properties": { "OBJECTID": 253, "BLOCK_NAME": "2200 Block of N HANCOCK ST", "ZIP_CODE": "19133", "YEAR": "2020", "COMMENTS": null, "DATA_SOURCE": "2020 Playstreets Program" }, "geometry": { "type": "Point", "coordinates": [ -75.135224737146302, 39.984629972065498 ] } },
{ "type": "Feature", "properties": { "OBJECTID": 254, "BLOCK_NAME": "1400 Block of W JEROME ST", "ZIP_CODE": "19140", "YEAR": "2020", "COMMENTS": null, "DATA_SOURCE": "2020 Playstreets Program" }, "geometry": { "type": "Point", "coordinates": [ -75.150493255616496, 40.016281721974998 ] } },
{ "type": "Feature", "properties": { "OBJECTID": 255, "BLOCK_NAME": "3700 Block of N BOUVIER ST", "ZIP_CODE": "19140", "YEAR": "2020", "COMMENTS": null, "DATA_SOURCE": "2020 Playstreets Program" }, "geometry": { "type": "Point", "coordinates": [ -75.156645078536101, 40.010773427513598 ] } },
{ "type": "Feature", "properties": { "OBJECTID": 256, "BLOCK_NAME": "4200 Block of N SYDENHAM ST", "ZIP_CODE": "19140", "YEAR": "2020", "COMMENTS": null, "DATA_SOURCE": "2020 Playstreets Program" }, "geometry": { "type": "Point", "coordinates": [ -75.151967812831003, 40.0183019494688 ] } },
{ "type": "Feature", "properties": { "OBJECTID": 257, "BLOCK_NAME": "1800 Block of W ELEANOR ST", "ZIP_CODE": "19141", "YEAR": "2020", "COMMENTS": null, "DATA_SOURCE": "2020 Playstreets Program" }, "geometry": { "type": "Point", "coordinates": [ -75.154593972730893, 40.027593001213098 ] } },
{ "type": "Feature", "properties": { "OBJECTID": 258, "BLOCK_NAME": "3500 Block of MOUNT VERNON ST", "ZIP_CODE": "19104", "YEAR": "2020", "COMMENTS": null, "DATA_SOURCE": "2020 Playstreets Program" }, "geometry": { "type": "Point", "coordinates": [ -75.193896432090497, 39.964420717628201 ] } },
{ "type": "Feature", "properties": { "OBJECTID": 259, "BLOCK_NAME": "4300 Block of RENO ST", "ZIP_CODE": "19104", "YEAR": "2020", "COMMENTS": null, "DATA_SOURCE": "2020 Playstreets Program" }, "geometry": { "type": "Point", "coordinates": [ -75.210439098147901, 39.967385621617296 ] } },
{ "type": "Feature", "properties": { "OBJECTID": 260, "BLOCK_NAME": "5600 Block of STEWART ST", "ZIP_CODE": "19131", "YEAR": "2020", "COMMENTS": null, "DATA_SOURCE": "2020 Playstreets Program" }, "geometry": { "type": "Point", "coordinates": [ -75.234731399526098, 39.9777411697277 ] } },
{ "type": "Feature", "properties": { "OBJECTID": 261, "BLOCK_NAME": "5400 Block of HARLAN ST", "ZIP_CODE": "19131", "YEAR": "2020", "COMMENTS": null, "DATA_SOURCE": "2020 Playstreets Program" }, "geometry": { "type": "Point", "coordinates": [ -75.229942423500106, 39.9743630889229 ] } },
{ "type": "Feature", "properties": { "OBJECTID": 262, "BLOCK_NAME": "200 Block of S ALDEN ST", "ZIP_CODE": "19139", "YEAR": "2020", "COMMENTS": null, "DATA_SOURCE": "2020 Playstreets Program" }, "geometry": { "type": "Point", "coordinates": [ -75.236345842677395, 39.957719106433203 ] } },
{ "type": "Feature", "properties": { "OBJECTID": 263, "BLOCK_NAME": "5400 Block of PEARL ST", "ZIP_CODE": "19139", "YEAR": "2020", "COMMENTS": null, "DATA_SOURCE": "2020 Playstreets Program" }, "geometry": { "type": "Point", "coordinates": [ -75.228185434166903, 39.965941934990298 ] } },
{ "type": "Feature", "properties": { "OBJECTID": 264, "BLOCK_NAME": "100 Block of N CONESTOGA ST", "ZIP_CODE": "19139", "YEAR": "2020", "COMMENTS": null, "DATA_SOURCE": "2020 Playstreets Program" }, "geometry": { "type": "Point", "coordinates": [ -75.229348989618501, 39.962617296060003 ] } },
{ "type": "Feature", "properties": { "OBJECTID": 265, "BLOCK_NAME": "1000 Block of PALLAS ST", "ZIP_CODE": "19104", "YEAR": "2020", "COMMENTS": null, "DATA_SOURCE": "2020 Playstreets Program" }, "geometry": { "type": "Point", "coordinates": [ -75.2111676519024, 39.971824263354101 ] } },
{ "type": "Feature", "properties": { "OBJECTID": 266, "BLOCK_NAME": "5100 Block of LUDLOW ST", "ZIP_CODE": "19139", "YEAR": "2020", "COMMENTS": null, "DATA_SOURCE": "2020 Playstreets Program" }, "geometry": { "type": "Point", "coordinates": [ -75.224006848385002, 39.959321540162399 ] } },
{ "type": "Feature", "properties": { "OBJECTID": 267, "BLOCK_NAME": "4900 Block of OLIVE ST", "ZIP_CODE": "19139", "YEAR": "2020", "COMMENTS": null, "DATA_SOURCE": "2020 Playstreets Program" }, "geometry": { "type": "Point", "coordinates": [ -75.219204573425898, 39.964431474351301 ] } },
{ "type": "Feature", "properties": { "OBJECTID": 268, "BLOCK_NAME": "1100 Block of SLOAN ST", "ZIP_CODE": "19104", "YEAR": "2020", "COMMENTS": null, "DATA_SOURCE": "2020 Playstreets Program" }, "geometry": { "type": "Point", "coordinates": [ -75.203461190588598, 39.973129868989901 ] } },
{ "type": "Feature", "properties": { "OBJECTID": 269, "BLOCK_NAME": "5200 Block of N WARNOCK ST", "ZIP_CODE": "19141", "YEAR": "2020", "COMMENTS": null, "DATA_SOURCE": "2020 Playstreets Program" }, "geometry": { "type": "Point", "coordinates": [ -75.139935797317705, 40.032164900646698 ] } },
{ "type": "Feature", "properties": { "OBJECTID": 270, "BLOCK_NAME": "5700 Block of N MARVINE ST", "ZIP_CODE": "19141", "YEAR": "2020", "COMMENTS": null, "DATA_SOURCE": "2020 Playstreets Program" }, "geometry": { "type": "Point", "coordinates": [ -75.139868812388997, 40.039872196972603 ] } },
{ "type": "Feature", "properties": { "OBJECTID": 271, "BLOCK_NAME": "5900 Block of N LAWRENCE ST", "ZIP_CODE": "19120", "YEAR": "2020", "COMMENTS": null, "DATA_SOURCE": "2020 Playstreets Program" }, "geometry": { "type": "Point", "coordinates": [ -75.128651407815894, 40.041737762503502 ] } },
{ "type": "Feature", "properties": { "OBJECTID": 272, "BLOCK_NAME": "200 Block of WIDENER ST", "ZIP_CODE": "19120", "YEAR": "2020", "COMMENTS": null, "DATA_SOURCE": "2020 Playstreets Program" }, "geometry": { "type": "Point", "coordinates": [ -75.125322493890295, 40.041033894251001 ] } },
{ "type": "Feature", "properties": { "OBJECTID": 273, "BLOCK_NAME": "100 Block of LINTON ST", "ZIP_CODE": "19120", "YEAR": "2020", "COMMENTS": null, "DATA_SOURCE": "2020 Playstreets Program" }, "geometry": { "type": "Point", "coordinates": [ -75.123186248173695, 40.041267058149998 ] } },
{ "type": "Feature", "properties": { "OBJECTID": 274, "BLOCK_NAME": "5100 Block of WESTFORD RD", "ZIP_CODE": "19120", "YEAR": "2020", "COMMENTS": null, "DATA_SOURCE": "2020 Playstreets Program" }, "geometry": { "type": "Point", "coordinates": [ -75.115903339444102, 40.028351579465998 ] } },
{ "type": "Feature", "properties": { "OBJECTID": 275, "BLOCK_NAME": "6000 Block of N PHILIP ST", "ZIP_CODE": "19120", "YEAR": "2020", "COMMENTS": null, "DATA_SOURCE": "2020 Playstreets Program" }, "geometry": { "type": "Point", "coordinates": [ -75.1247066005986, 40.042777464705203 ] } },
{ "type": "Feature", "properties": { "OBJECTID": 276, "BLOCK_NAME": "3800 Block of WYALUSING AVE", "ZIP_CODE": "19104", "YEAR": "2020", "COMMENTS": null, "DATA_SOURCE": "2020 Playstreets Program" }, "geometry": { "type": "Point", "coordinates": [ -75.2002597805634, 39.972591904181201 ] } },
{ "type": "Feature", "properties": { "OBJECTID": 277, "BLOCK_NAME": "4000 Block of CAMBRIDGE ST", "ZIP_CODE": "19104", "YEAR": "2020", "COMMENTS": null, "DATA_SOURCE": "2020 Playstreets Program" }, "geometry": { "type": "Point", "coordinates": [ -75.205241367198497, 39.973288040850498 ] } },
{ "type": "Feature", "properties": { "OBJECTID": 278, "BLOCK_NAME": "1700 Block of S FRAZIER ST", "ZIP_CODE": "19143", "YEAR": "2020", "COMMENTS": null, "DATA_SOURCE": "2020 Playstreets Program" }, "geometry": { "type": "Point", "coordinates": [ -75.225919155751896, 39.936475716363397 ] } },
{ "type": "Feature", "properties": { "OBJECTID": 279, "BLOCK_NAME": "5100 Block of CHANCELLOR ST", "ZIP_CODE": "19139", "YEAR": "2020", "COMMENTS": null, "DATA_SOURCE": "2020 Playstreets Program" }, "geometry": { "type": "Point", "coordinates": [ -75.2246480429136, 39.956251552635997 ] } },
{ "type": "Feature", "properties": { "OBJECTID": 280, "BLOCK_NAME": "0 Block of N DEWEY ST", "ZIP_CODE": "19139", "YEAR": "2020", "COMMENTS": "0-99 Street Range", "DATA_SOURCE": "2020 Playstreets Program" }, "geometry": { "type": "Point", "coordinates": [ -75.243192196984793, 39.963079561197098 ] } },
{ "type": "Feature", "properties": { "OBJECTID": 281, "BLOCK_NAME": "2900 Block of N ORIANNA ST", "ZIP_CODE": "19133", "YEAR": "2020", "COMMENTS": null, "DATA_SOURCE": "2020 Playstreets Program" }, "geometry": { "type": "Point", "coordinates": [ -75.137013262399194, 39.995617314323503 ] } },
{ "type": "Feature", "properties": { "OBJECTID": 282, "BLOCK_NAME": "300 Block of N HOLLY ST", "ZIP_CODE": "19104", "YEAR": "2020", "COMMENTS": null, "DATA_SOURCE": "2020 Playstreets Program" }, "geometry": { "type": "Point", "coordinates": [ -75.205823960631406, 39.959474412232503 ] } },
{ "type": "Feature", "properties": { "OBJECTID": 283, "BLOCK_NAME": "3800 Block of PENNSGROVE ST", "ZIP_CODE": "19104", "YEAR": "2020", "COMMENTS": null, "DATA_SOURCE": "2020 Playstreets Program" }, "geometry": { "type": "Point", "coordinates": [ -75.200321474433395, 39.972101317165396 ] } },
{ "type": "Feature", "properties": { "OBJECTID": 284, "BLOCK_NAME": "3900 Block of OGDEN ST", "ZIP_CODE": "19104", "YEAR": "2020", "COMMENTS": null, "DATA_SOURCE": "2020 Playstreets Program" }, "geometry": { "type": "Point", "coordinates": [ -75.202907502519594, 39.969559578611097 ] } },
{ "type": "Feature", "properties": { "OBJECTID": 285, "BLOCK_NAME": "4200 Block of OGDEN ST", "ZIP_CODE": "19104", "YEAR": "2020", "COMMENTS": null, "DATA_SOURCE": "2020 Playstreets Program" }, "geometry": { "type": "Point", "coordinates": [ -75.209478697384895, 39.968832687194897 ] } },
{ "type": "Feature", "properties": { "OBJECTID": 286, "BLOCK_NAME": "4000 Block of GREEN ST", "ZIP_CODE": "19104", "YEAR": "2020", "COMMENTS": null, "DATA_SOURCE": "2020 Playstreets Program" }, "geometry": { "type": "Point", "coordinates": [ -75.203110061325106, 39.962209569609598 ] } },
{ "type": "Feature", "properties": { "OBJECTID": 287, "BLOCK_NAME": "1800 Block of ELSTON ST", "ZIP_CODE": "19126", "YEAR": "2020", "COMMENTS": null, "DATA_SOURCE": "2020 Playstreets Program" }, "geometry": { "type": "Point", "coordinates": [ -75.146457079282399, 40.064766663854002 ] } },
{ "type": "Feature", "properties": { "OBJECTID": 288, "BLOCK_NAME": "1200 Block of N CONESTOGA ST", "ZIP_CODE": "19131", "YEAR": "2020", "COMMENTS": null, "DATA_SOURCE": "2020 Playstreets Program" }, "geometry": { "type": "Point", "coordinates": [ -75.229849386292102, 39.971777721163498 ] } },
{ "type": "Feature", "properties": { "OBJECTID": 289, "BLOCK_NAME": "2500 Block of N NEWKIRK ST", "ZIP_CODE": "19132", "YEAR": "2020", "COMMENTS": null, "DATA_SOURCE": "2020 Playstreets Program" }, "geometry": { "type": "Point", "coordinates": [ -75.178025057975304, 39.994566651276301 ] } },
{ "type": "Feature", "properties": { "OBJECTID": 290, "BLOCK_NAME": "2600 Block of N 11TH ST", "ZIP_CODE": "19133", "YEAR": "2020", "COMMENTS": null, "DATA_SOURCE": "2020 Playstreets Program" }, "geometry": { "type": "Point", "coordinates": [ -75.149753558229904, 39.990926740655198 ] } },
{ "type": "Feature", "properties": { "OBJECTID": 291, "BLOCK_NAME": "2600 Block of N DARIEN ST", "ZIP_CODE": "19133", "YEAR": "2020", "COMMENTS": null, "DATA_SOURCE": "2020 Playstreets Program" }, "geometry": { "type": "Point", "coordinates": [ -75.145457684603599, 39.993479998054397 ] } },
{ "type": "Feature", "properties": { "OBJECTID": 292, "BLOCK_NAME": "600 Block of E HILTON ST", "ZIP_CODE": "19134", "YEAR": "2020", "COMMENTS": null, "DATA_SOURCE": "2020 Playstreets Program" }, "geometry": { "type": "Point", "coordinates": [ -75.117828869617995, 39.997675874839501 ] } },
{ "type": "Feature", "properties": { "OBJECTID": 293, "BLOCK_NAME": "3400 Block of LANSING ST", "ZIP_CODE": "19136", "YEAR": "2020", "COMMENTS": null, "DATA_SOURCE": "2020 Playstreets Program" }, "geometry": { "type": "Point", "coordinates": [ -75.033834845147496, 40.042395985872403 ] } },
{ "type": "Feature", "properties": { "OBJECTID": 294, "BLOCK_NAME": "4200 Block of LORING ST", "ZIP_CODE": "19136", "YEAR": "2020", "COMMENTS": null, "DATA_SOURCE": "2020 Playstreets Program" }, "geometry": { "type": "Point", "coordinates": [ -75.036009711747298, 40.036461166613996 ] } },
{ "type": "Feature", "properties": { "OBJECTID": 295, "BLOCK_NAME": "5800 Block of BRUSH RD", "ZIP_CODE": "19138", "YEAR": "2020", "COMMENTS": null, "DATA_SOURCE": "2020 Playstreets Program" }, "geometry": { "type": "Point", "coordinates": [ -75.160084218050102, 40.053291056899603 ] } },
{ "type": "Feature", "properties": { "OBJECTID": 296, "BLOCK_NAME": "800 Block of E PRICE ST", "ZIP_CODE": "19138", "YEAR": "2020", "COMMENTS": null, "DATA_SOURCE": "2020 Playstreets Program" }, "geometry": { "type": "Point", "coordinates": [ -75.165215248658399, 40.047024402664697 ] } },
{ "type": "Feature", "properties": { "OBJECTID": 297, "BLOCK_NAME": "0 Block of S CECIL ST", "ZIP_CODE": "19139", "YEAR": "2020", "COMMENTS": "0-99 Street Range", "DATA_SOURCE": "2020 Playstreets Program" }, "geometry": { "type": "Point", "coordinates": [ -75.236367194908595, 39.960250468167402 ] } },
{ "type": "Feature", "properties": { "OBJECTID": 298, "BLOCK_NAME": "200 Block of W THAYER ST", "ZIP_CODE": "19140", "YEAR": "2020", "COMMENTS": null, "DATA_SOURCE": "2020 Playstreets Program" }, "geometry": { "type": "Point", "coordinates": [ -75.134456912122303, 40.001976860168398 ] } },
{ "type": "Feature", "properties": { "OBJECTID": 299, "BLOCK_NAME": "3800 Block of N GRATZ ST", "ZIP_CODE": "19140", "YEAR": "2020", "COMMENTS": null, "DATA_SOURCE": "2020 Playstreets Program" }, "geometry": { "type": "Point", "coordinates": [ -75.157870201764496, 40.012520498015597 ] } },
{ "type": "Feature", "properties": { "OBJECTID": 300, "BLOCK_NAME": "4400 Block of N FRANKLIN ST", "ZIP_CODE": "19140", "YEAR": "2020", "COMMENTS": null, "DATA_SOURCE": "2020 Playstreets Program" }, "geometry": { "type": "Point", "coordinates": [ -75.138626069426707, 40.019434095055999 ] } },
{ "type": "Feature", "properties": { "OBJECTID": 301, "BLOCK_NAME": "5600 Block of N WARNOCK ST", "ZIP_CODE": "19141", "YEAR": "2020", "COMMENTS": null, "DATA_SOURCE": "2020 Playstreets Program" }, "geometry": { "type": "Point", "coordinates": [ -75.1385695785401, 40.038387763370302 ] } },
{ "type": "Feature", "properties": { "OBJECTID": 302, "BLOCK_NAME": "2000 Block of BONNAFFON ST", "ZIP_CODE": "19142", "YEAR": "2020", "COMMENTS": null, "DATA_SOURCE": "2020 Playstreets Program" }, "geometry": { "type": "Point", "coordinates": [ -75.239239733441593, 39.9246170571761 ] } },
{ "type": "Feature", "properties": { "OBJECTID": 303, "BLOCK_NAME": "5300 Block of ADDISON ST", "ZIP_CODE": "19143", "YEAR": "2020", "COMMENTS": null, "DATA_SOURCE": "2020 Playstreets Program" }, "geometry": { "type": "Point", "coordinates": [ -75.229315645158096, 39.952885092850899 ] } },
{ "type": "Feature", "properties": { "OBJECTID": 304, "BLOCK_NAME": "500 Block of E BRINGHURST ST", "ZIP_CODE": "19144", "YEAR": "2020", "COMMENTS": null, "DATA_SOURCE": "2020 Playstreets Program" }, "geometry": { "type": "Point", "coordinates": [ -75.160765430045402, 40.038002540433702 ] } },
{ "type": "Feature", "properties": { "OBJECTID": 305, "BLOCK_NAME": "500 Block of E RITTENHOUSE ST", "ZIP_CODE": "19144", "YEAR": "2020", "COMMENTS": null, "DATA_SOURCE": "2020 Playstreets Program" }, "geometry": { "type": "Point", "coordinates": [ -75.170170148140699, 40.043253855140499 ] } },
{ "type": "Feature", "properties": { "OBJECTID": 306, "BLOCK_NAME": "1600 Block of S ETTING ST", "ZIP_CODE": "19145", "YEAR": "2020", "COMMENTS": null, "DATA_SOURCE": "2020 Playstreets Program" }, "geometry": { "type": "Point", "coordinates": [ -75.190366411769105, 39.9326942295639 ] } },
{ "type": "Feature", "properties": { "OBJECTID": 307, "BLOCK_NAME": "1600 Block of S TANEY ST", "ZIP_CODE": "19145", "YEAR": "2020", "COMMENTS": null, "DATA_SOURCE": "2020 Playstreets Program" }, "geometry": { "type": "Point", "coordinates": [ -75.189274887174307, 39.9325556926457 ] } },
{ "type": "Feature", "properties": { "OBJECTID": 308, "BLOCK_NAME": "1500 Block of S PATTON ST", "ZIP_CODE": "19146", "YEAR": "2020", "COMMENTS": null, "DATA_SOURCE": "2020 Playstreets Program" }, "geometry": { "type": "Point", "coordinates": [ -75.196893866307605, 39.934787355135597 ] } },
{ "type": "Feature", "properties": { "OBJECTID": 309, "BLOCK_NAME": "1700 Block of MANTON ST", "ZIP_CODE": "19146", "YEAR": "2020", "COMMENTS": null, "DATA_SOURCE": "2020 Playstreets Program" }, "geometry": { "type": "Point", "coordinates": [ -75.172912491325803, 39.936139199309899 ] } },
{ "type": "Feature", "properties": { "OBJECTID": 310, "BLOCK_NAME": "2100 Block of ANNIN ST", "ZIP_CODE": "19146", "YEAR": "2020", "COMMENTS": null, "DATA_SOURCE": "2020 Playstreets Program" }, "geometry": { "type": "Point", "coordinates": [ -75.179316679239307, 39.938111478311903 ] } },
{ "type": "Feature", "properties": { "OBJECTID": 311, "BLOCK_NAME": "2200 Block of PEMBERTON ST", "ZIP_CODE": "19146", "YEAR": "2020", "COMMENTS": null, "DATA_SOURCE": "2020 Playstreets Program" }, "geometry": { "type": "Point", "coordinates": [ -75.179691865925605, 39.944029563205198 ] } },
{ "type": "Feature", "properties": { "OBJECTID": 312, "BLOCK_NAME": "800 Block of EARP ST", "ZIP_CODE": "19147", "YEAR": "2020", "COMMENTS": null, "DATA_SOURCE": "2020 Playstreets Program" }, "geometry": { "type": "Point", "coordinates": [ -75.158543441994695, 39.932148020186503 ] } },
{ "type": "Feature", "properties": { "OBJECTID": 313, "BLOCK_NAME": "500 Block of SIGEL ST", "ZIP_CODE": "19148", "YEAR": "2020", "COMMENTS": null, "DATA_SOURCE": "2020 Playstreets Program" }, "geometry": { "type": "Point", "coordinates": [ -75.155215867382694, 39.925441315469001 ] } },
{ "type": "Feature", "properties": { "OBJECTID": 314, "BLOCK_NAME": "700 Block of HOFFMAN ST", "ZIP_CODE": "19148", "YEAR": "2020", "COMMENTS": null, "DATA_SOURCE": "2020 Playstreets Program" }, "geometry": { "type": "Point", "coordinates": [ -75.158531956390107, 39.9249901574848 ] } },
{ "type": "Feature", "properties": { "OBJECTID": 315, "BLOCK_NAME": "600 Block of MERCY ST", "ZIP_CODE": "19148", "YEAR": "2020", "COMMENTS": null, "DATA_SOURCE": "2020 Playstreets Program" }, "geometry": { "type": "Point", "coordinates": [ -75.1573128009275, 39.923250316630202 ] } },
{ "type": "Feature", "properties": { "OBJECTID": 316, "BLOCK_NAME": "7000 Block of SOUDER ST", "ZIP_CODE": "19149", "YEAR": "2020", "COMMENTS": null, "DATA_SOURCE": "2020 Playstreets Program" }, "geometry": { "type": "Point", "coordinates": [ -75.066555227862906, 40.045723833912497 ] } },
{ "type": "Feature", "properties": { "OBJECTID": 317, "BLOCK_NAME": "1200 Block of E DURHAM ST", "ZIP_CODE": "19150", "YEAR": "2020", "COMMENTS": null, "DATA_SOURCE": "2020 Playstreets Program" }, "geometry": { "type": "Point", "coordinates": [ -75.174727507305207, 40.0735018100075 ] } }
]
}
