{
"type": "FeatureCollection",
"name": "68620fc3-0fb6-4487-bb20-eb501ba5af5a202041-1-52hbyr.0gz9m",
"crs": { "type": "name", "properties": { "name": "urn:ogc:def:crs:OGC:1.3:CRS84" } },
"features": [
{ "type": "Feature", "properties": { "OBJECTID": 1, "SITE_NAME": "52nd Street Business Association", "HOURS": "9A-5P", "ADDRESS": "623 South 52nd Street", "CITY": "Philadelphia", "STATE": "PA", "ZIP": 19143 }, "geometry": { "type": "Point", "coordinates": [ -75.226904722343633, 39.949876545359409 ] } },
{ "type": "Feature", "properties": { "OBJECTID": 2, "SITE_NAME": "5th Element Hair", "HOURS": "M-SAT 10A-9P", "ADDRESS": "532 S. 4th St.", "CITY": "Philadelphia", "STATE": "PA", "ZIP": 19147 }, "geometry": { "type": "Point", "coordinates": [ -75.149187448599648, 39.94181139687911 ] } },
{ "type": "Feature", "properties": { "OBJECTID": 3, "SITE_NAME": "Action AIDS Main", "HOURS": "8A-5P", "ADDRESS": "1216 Arch Street", "CITY": "Philadelphia", "STATE": "PA", "ZIP": 19107 }, "geometry": { "type": "Point", "coordinates": [ -75.160276722261628, 39.954002515632041 ] } },
{ "type": "Feature", "properties": { "OBJECTID": 4, "SITE_NAME": "Action AIDS North ", "HOURS": "8A-5P", "ADDRESS": "2641 North 6th Street", "CITY": "Philadelphia", "STATE": "PA", "ZIP": 19133 }, "geometry": { "type": "Point", "coordinates": [ -75.142249326426423, 39.991803227497911 ] } },
{ "type": "Feature", "properties": { "OBJECTID": 5, "SITE_NAME": "Action AIDS West", "HOURS": "8A-5P", "ADDRESS": "3901 Market Street  ", "CITY": "Philadelphia", "STATE": "PA", "ZIP": 19104 }, "geometry": { "type": "Point", "coordinates": [ -75.200762898968989, 39.95709260985101 ] } },
{ "type": "Feature", "properties": { "OBJECTID": 6, "SITE_NAME": "ActionAIDS Center City", "HOURS": "8A-5P", "ADDRESS": "1026 Arch", "CITY": "Philadelphia", "STATE": "PA", "ZIP": 19107 }, "geometry": { "type": "Point", "coordinates": [ -75.157374757409897, 39.95364598822465 ] } },
{ "type": "Feature", "properties": { "OBJECTID": 7, "SITE_NAME": "Adonis Cinema", "HOURS": "24\/7", "ADDRESS": "2026  Sansom Street", "CITY": "Philadelphia", "STATE": "PA", "ZIP": 19103 }, "geometry": { "type": "Point", "coordinates": [ -75.174457689550906, 39.9513719853338 ] } },
{ "type": "Feature", "properties": { "OBJECTID": 8, "SITE_NAME": "Albert Einstein Medical Center - Teen Clinic", "HOURS": "8:3A-5P", "ADDRESS": "5501 Old York Road", "CITY": "Philadelphia", "STATE": "PA", "ZIP": 19141 }, "geometry": { "type": "Point", "coordinates": [ -75.144583070530587, 40.036936611938536 ] } },
{ "type": "Feature", "properties": { "OBJECTID": 9, "SITE_NAME": "AMHA", "HOURS": "24\/7", "ADDRESS": "928 Market Street", "CITY": "Philadelphia", "STATE": "PA", "ZIP": 19107 }, "geometry": { "type": "Point", "coordinates": [ -75.156120070168143, 39.951383328353046 ] } },
{ "type": "Feature", "properties": { "OBJECTID": 10, "SITE_NAME": "Ann's Nail Salon", "HOURS": "M-Sat 10A-6P", "ADDRESS": "2234 Ridge Ave", "CITY": "Philadelphia", "STATE": "PA", "ZIP": 19121 }, "geometry": { "type": "Point", "coordinates": [ -75.17196307690331, 39.980179270805394 ] } },
{ "type": "Feature", "properties": { "OBJECTID": 11, "SITE_NAME": "Arise Academy", "HOURS": "8A-3P", "ADDRESS": "1118 Market Street", "CITY": "Philadelphia", "STATE": "PA", "ZIP": 19107 }, "geometry": { "type": "Point", "coordinates": [ -75.15924982698786, 39.951108360106339 ] } },
{ "type": "Feature", "properties": { "OBJECTID": 12, "SITE_NAME": "Art Institute", "HOURS": "9A-5P", "ADDRESS": "1622 Chestnut Street", "CITY": "Philadelphia", "STATE": "PA", "ZIP": 19103 }, "geometry": { "type": "Point", "coordinates": [ -75.168086280922921, 39.951350567433927 ] } },
{ "type": "Feature", "properties": { "OBJECTID": 13, "SITE_NAME": "Attic Youth Center", "HOURS": "3P-8P", "ADDRESS": "255 S. 16th Street", "CITY": "Philadelphia", "STATE": "PA", "ZIP": 19102 }, "geometry": { "type": "Point", "coordinates": [ -75.167920976842751, 39.94773478632645 ] } },
{ "type": "Feature", "properties": { "OBJECTID": 14, "SITE_NAME": "B & L Pediatrics at Temple", "HOURS": "9A-5P", "ADDRESS": "2701 N. Broad St", "CITY": "Philadelphia", "STATE": "PA", "ZIP": 19132 }, "geometry": { "type": "Point", "coordinates": [ -75.154361600941229, 39.994204933349849 ] } },
{ "type": "Feature", "properties": { "OBJECTID": 15, "SITE_NAME": "Back 2 Back Barbershop", "HOURS": "M-Sat 9A-7P", "ADDRESS": "2620 Cecil B. Moore Ave", "CITY": "Philadelphia", "STATE": "PA", "ZIP": 19121 }, "geometry": { "type": "Point", "coordinates": [ -75.178206163293268, 39.981268077550901 ] } },
{ "type": "Feature", "properties": { "OBJECTID": 16, "SITE_NAME": "BEBASHI", "HOURS": "9A-6P", "ADDRESS": "1217 Spring Garden Street", "CITY": "Philadelphia", "STATE": "PA", "ZIP": 19123 }, "geometry": { "type": "Point", "coordinates": [ -75.158613802068601, 39.962042961996922 ] } },
{ "type": "Feature", "properties": { "OBJECTID": 17, "SITE_NAME": "Bible Way", "HOURS": "9A-5P", "ADDRESS": "1461 N 52nd Street", "CITY": "Philadelphia", "STATE": "PA", "ZIP": 19131 }, "geometry": { "type": "Point", "coordinates": [ -75.226689507382872, 39.976552564178185 ] } },
{ "type": "Feature", "properties": { "OBJECTID": 18, "SITE_NAME": "Blue Moon Hotel", "HOURS": "24\/7", "ADDRESS": "5105 Westminster Avenue", "CITY": "Philadelphia", "STATE": "PA", "ZIP": 19131 }, "geometry": { "type": "Point", "coordinates": [ -75.223094255377603, 39.968408789095548 ] } },
{ "type": "Feature", "properties": { "OBJECTID": 19, "SITE_NAME": "Bottoms Up", "HOURS": "6P-2A", "ADDRESS": "4661 N. 5th Street", "CITY": "Philadelphia", "STATE": "PA", "ZIP": 19140 }, "geometry": { "type": "Point", "coordinates": [ -75.133458268231536, 40.022547130011347 ] } },
{ "type": "Feature", "properties": { "OBJECTID": 20, "SITE_NAME": "Boys and Girls Club - Fairmount", "HOURS": "11A-7P", "ADDRESS": "1100 Poplar St", "CITY": "Philadelphia", "STATE": "PA", "ZIP": 19123 }, "geometry": { "type": "Point", "coordinates": [ -75.155259217169061, 39.969074739438831 ] } },
{ "type": "Feature", "properties": { "OBJECTID": 21, "SITE_NAME": "Boyz \"N\" Tha Hood Car Club", "HOURS": "9A - 5P", "ADDRESS": "5738 Frankford Ave", "CITY": "Philadelphia", "STATE": "PA", "ZIP": 19135 }, "geometry": { "type": "Point", "coordinates": [ -75.071991691155858, 40.025754800468334 ] } },
{ "type": "Feature", "properties": { "OBJECTID": 22, "SITE_NAME": "Brotherly Love Barber", "HOURS": "T-SAT 9A-530P", "ADDRESS": "2135 N Front St", "CITY": "Philadelphia", "STATE": "PA", "ZIP": 19125 }, "geometry": { "type": "Point", "coordinates": [ -75.132617288495894, 39.982568956487469 ] } },
{ "type": "Feature", "properties": { "OBJECTID": 23, "SITE_NAME": "C Mart", "HOURS": "M-F 7A-8P SAT 8A-8P", "ADDRESS": "1256 Pratt St", "CITY": "Philadelphia", "STATE": "PA", "ZIP": 19124 }, "geometry": { "type": "Point", "coordinates": [ -75.082905161904364, 40.025197826487712 ] } },
{ "type": "Feature", "properties": { "OBJECTID": 24, "SITE_NAME": "Carroll Park", "HOURS": "9A-5P", "ADDRESS": "5218 W. Master Street", "CITY": "Philadelphia", "STATE": "PA", "ZIP": 19131 }, "geometry": { "type": "Point", "coordinates": [ -75.227124426085339, 39.974122163753286 ] } },
{ "type": "Feature", "properties": { "OBJECTID": 25, "SITE_NAME": "Catholic Workers Free Clinic", "HOURS": "TW 9:3A-11:3A TWTh 4:3P-6:3P F 11:3A-1:3P", "ADDRESS": "1813 E. Hagert St", "CITY": "Philadelphia", "STATE": "PA", "ZIP": 19125 }, "geometry": { "type": "Point", "coordinates": [ -75.130408607396546, 39.98655281382522 ] } },
{ "type": "Feature", "properties": { "OBJECTID": 26, "SITE_NAME": "Center for Women's Health", "HOURS": null, "ADDRESS": "3300 Henry Avenue", "CITY": "Philadelphia", "STATE": "PA", "ZIP": 19129 }, "geometry": { "type": "Point", "coordinates": [ -75.183620339366414, 40.013006289253234 ] } },
{ "type": "Feature", "properties": { "OBJECTID": 27, "SITE_NAME": "CHOP - Adolescent Care Center", "HOURS": "M-F 9A-12P & 1P-4P", "ADDRESS": "3550 Market St., 4th Fl", "CITY": "Philadelphia", "STATE": "PA", "ZIP": 19104 }, "geometry": { "type": "Point", "coordinates": [ -75.194086017358359, 39.956124970825769 ] } },
{ "type": "Feature", "properties": { "OBJECTID": 28, "SITE_NAME": "CHOP - Cobbs Creek", "HOURS": "M-Sat 9A-6P", "ADDRESS": "225 Cobbs Creek Parkway", "CITY": "Philadelphia", "STATE": "PA", "ZIP": 19139 }, "geometry": { "type": "Point", "coordinates": [ -75.247463489014862, 39.959016762484609 ] } },
{ "type": "Feature", "properties": { "OBJECTID": 29, "SITE_NAME": "CHOP - Pediatric\/Adolescent Clinic", "HOURS": "M-W 9A-7P, Th. 9A-4P, Fr. 9A - 1P", "ADDRESS": "3819-33 Chestnut St., St. Leonard's Court, Suite 120", "CITY": "Philadelphia", "STATE": "PA", "ZIP": 19104 }, "geometry": { "type": "Point", "coordinates": [ -75.199212860188496, 39.95531735183858 ] } },
{ "type": "Feature", "properties": { "OBJECTID": 30, "SITE_NAME": "CHOP - South Philly", "HOURS": "M-Th 8:30A - 7P, F 8:3A-5P", "ADDRESS": "1930 S Broad St", "CITY": "Philadelphia", "STATE": "PA", "ZIP": 19145 }, "geometry": { "type": "Point", "coordinates": [ -75.169421826625154, 39.926223828385766 ] } },
{ "type": "Feature", "properties": { "OBJECTID": 31, "SITE_NAME": "Community Council", "HOURS": "9A-5P", "ADDRESS": "4900 Wyalusing Avenue", "CITY": "Philadelphia", "STATE": "PA", "ZIP": 19131 }, "geometry": { "type": "Point", "coordinates": [ -75.219030724840493, 39.970125228082836 ] } },
{ "type": "Feature", "properties": { "OBJECTID": 32, "SITE_NAME": "Concilio", "HOURS": "9A-5P", "ADDRESS": "705 N. Franklin Street", "CITY": "Philadelphia", "STATE": "PA", "ZIP": 19123 }, "geometry": { "type": "Point", "coordinates": [ -75.150237948240658, 39.964443184283809 ] } },
{ "type": "Feature", "properties": { "OBJECTID": 33, "SITE_NAME": "Congresso", "HOURS": "9A-5P", "ADDRESS": "216 W. Somerset Street", "CITY": "Philadelphia", "STATE": "PA", "ZIP": 19133 }, "geometry": { "type": "Point", "coordinates": [ -75.13539371160077, 39.993066351162639 ] } },
{ "type": "Feature", "properties": { "OBJECTID": 34, "SITE_NAME": "Consortium", "HOURS": "8:3A-4P", "ADDRESS": "5501 Chestnut", "CITY": "Philadelphia", "STATE": "PA", "ZIP": 19139 }, "geometry": { "type": "Point", "coordinates": [ -75.231283207993727, 39.9592991184456 ] } },
{ "type": "Feature", "properties": { "OBJECTID": 35, "SITE_NAME": "Covenant House", "HOURS": "9A-5P", "ADDRESS": "31 E Armat St", "CITY": "Philadelphia", "STATE": "PA", "ZIP": 19144 }, "geometry": { "type": "Point", "coordinates": [ -75.172982857500102, 40.035818241914711 ] } },
{ "type": "Feature", "properties": { "OBJECTID": 36, "SITE_NAME": "Covenant House Health Services", "HOURS": "9A-5P", "ADDRESS": "251 east bringhurst street", "CITY": "Philadelphia", "STATE": "PA", "ZIP": 19144 }, "geometry": { "type": "Point", "coordinates": [ -75.164720995346329, 40.034508187448424 ] } },
{ "type": "Feature", "properties": { "OBJECTID": 37, "SITE_NAME": "Cuts 2 the Max Barbershop", "HOURS": "Tues-Sat 10A-8P", "ADDRESS": "3840 Germantown Ave", "CITY": "Philadelphia", "STATE": "PA", "ZIP": 19140 }, "geometry": { "type": "Point", "coordinates": [ -75.151931093885395, 40.011920686060819 ] } },
{ "type": "Feature", "properties": { "OBJECTID": 38, "SITE_NAME": "DC 33", "HOURS": "7:3A-5P", "ADDRESS": "3001 Walnut Street", "CITY": "Philadelphia", "STATE": "PA", "ZIP": 19104 }, "geometry": { "type": "Point", "coordinates": [ -75.184498369923588, 39.951933070638525 ] } },
{ "type": "Feature", "properties": { "OBJECTID": 39, "SITE_NAME": "Depaul House", "HOURS": "24 Hrs", "ADDRESS": "5725 Sprague St.", "CITY": "Philadelphia", "STATE": "PA", "ZIP": 19138 }, "geometry": { "type": "Point", "coordinates": [ -75.162112233438421, 40.048893036402625 ] } },
{ "type": "Feature", "properties": { "OBJECTID": 40, "SITE_NAME": "D'Gala Barbershop", "HOURS": "T-Sun 8A-9P", "ADDRESS": "935 W. Erie Ave", "CITY": "Philadelphia", "STATE": "PA", "ZIP": 19140 }, "geometry": { "type": "Point", "coordinates": [ -75.144172384651796, 40.008434270355366 ] } },
{ "type": "Feature", "properties": { "OBJECTID": 41, "SITE_NAME": "Dirty Franks (Bar)", "HOURS": "11P-2A", "ADDRESS": "347 South 13th Street", "CITY": "Philadelphia", "STATE": "PA", "ZIP": 19107 }, "geometry": { "type": "Point", "coordinates": [ -75.16285570583581, 39.945472073007586 ] } },
{ "type": "Feature", "properties": { "OBJECTID": 42, "SITE_NAME": "Dorthy Mann Center at St. Chris Hosp - Immunology", "HOURS": "9A-5P", "ADDRESS": "3601 A Street, Nelson Pavillion", "CITY": "Philadelphia", "STATE": "PA", "ZIP": 19134 }, "geometry": { "type": "Point", "coordinates": [ -75.125326307798815, 40.006716097863503 ] } },
{ "type": "Feature", "properties": { "OBJECTID": 43, "SITE_NAME": "Dr. Kahn", "HOURS": "9A-4P", "ADDRESS": "5402 W. Girard", "CITY": "Philadelphia", "STATE": "PA", "ZIP": 19131 }, "geometry": { "type": "Point", "coordinates": [ -75.228881595575771, 39.971044867541806 ] } },
{ "type": "Feature", "properties": { "OBJECTID": 44, "SITE_NAME": "Drexel Student Health", "HOURS": "MWF 8:3-4:3", "ADDRESS": "3201 Arch Street Suite 240", "CITY": "Philadelphia", "STATE": "PA", "ZIP": 19104 }, "geometry": { "type": "Point", "coordinates": [ -75.18813510435929, 39.957552913051266 ] } },
{ "type": "Feature", "properties": { "OBJECTID": 45, "SITE_NAME": "Drexel Women's Care", "HOURS": "8A-5P", "ADDRESS": "1427 Vine Street", "CITY": "Philadelphia", "STATE": "PA", "ZIP": 19102 }, "geometry": { "type": "Point", "coordinates": [ -75.163629890284753, 39.958286999764525 ] } },
{ "type": "Feature", "properties": { "OBJECTID": 46, "SITE_NAME": "E3 Power Center - Center Girard", "HOURS": "9A-6P", "ADDRESS": "1215 Germantown Avenue ", "CITY": "Philadelphia", "STATE": "PA", "ZIP": 19122 }, "geometry": { "type": "Point", "coordinates": [ -75.14074974571318, 39.970195384185509 ] } },
{ "type": "Feature", "properties": { "OBJECTID": 47, "SITE_NAME": "E3 Power Center - North", "HOURS": "9A-6P", "ADDRESS": "1231 N. Broad, 5th Fl", "CITY": "Philadelphia", "STATE": "PA", "ZIP": 19122 }, "geometry": { "type": "Point", "coordinates": [ -75.159069680846017, 39.972837506264817 ] } },
{ "type": "Feature", "properties": { "OBJECTID": 48, "SITE_NAME": "E3 Power Center - West", "HOURS": "9A-6P", "ADDRESS": "4111 Lancaster", "CITY": "Philadelphia", "STATE": "PA", "ZIP": 19104 }, "geometry": { "type": "Point", "coordinates": [ -75.206013507679955, 39.965521999789175 ] } },
{ "type": "Feature", "properties": { "OBJECTID": 49, "SITE_NAME": "E3 Power Center- Olney", "HOURS": "9A-6P", "ADDRESS": "5201 Old York Road", "CITY": "Philadelphia", "STATE": "PA", "ZIP": 19141 }, "geometry": { "type": "Point", "coordinates": [ -75.145538217532618, 40.03239566373037 ] } },
{ "type": "Feature", "properties": { "OBJECTID": 50, "SITE_NAME": "Early Head Start", "HOURS": "9A-5P", "ADDRESS": "111 N. 49th Street", "CITY": "Philadelphia", "STATE": "PA", "ZIP": 19139 }, "geometry": { "type": "Point", "coordinates": [ -75.219375549097734, 39.961198247807609 ] } },
{ "type": "Feature", "properties": { "OBJECTID": 51, "SITE_NAME": "Early Head Start", "HOURS": "9A-5P", "ADDRESS": "4606 Frankford Ave", "CITY": "Philadelphia", "STATE": "PA", "ZIP": 19124 }, "geometry": { "type": "Point", "coordinates": [ -75.085384145293617, 40.015041734688751 ] } },
{ "type": "Feature", "properties": { "OBJECTID": 52, "SITE_NAME": "Early Head Start", "HOURS": "9A-5P", "ADDRESS": "1228 N. Franklin St.", "CITY": "Philadelphia", "STATE": "PA", "ZIP": 19122 }, "geometry": { "type": "Point", "coordinates": [ -75.148946611752422, 39.970892447581491 ] } },
{ "type": "Feature", "properties": { "OBJECTID": 53, "SITE_NAME": "Einstetin Women's Center - OB\/GYN", "HOURS": "8:30AM - 5PM", "ADDRESS": "1602-1604 Wadsworth Ave", "CITY": "Philadelphia", "STATE": "PA", "ZIP": 19150 }, "geometry": { "type": "Point", "coordinates": [ -75.172476576822035, 40.080513838972884 ] } },
{ "type": "Feature", "properties": { "OBJECTID": 54, "SITE_NAME": "Fels South Philadelphia Community Center", "HOURS": "7A-6P", "ADDRESS": "2407 South Broad Street 19148 ", "CITY": "Philadelphia", "STATE": "PA", "ZIP": 19148 }, "geometry": { "type": "Point", "coordinates": [ -75.170422788651976, 39.920435234069444 ] } },
{ "type": "Feature", "properties": { "OBJECTID": 55, "SITE_NAME": "Frankford Neighborhood Center ", "HOURS": "M-F 9A-5P Tues 9A-8P", "ADDRESS": "4451 Frankford Ave", "CITY": "Philadelphia", "STATE": "PA", "ZIP": 19124 }, "geometry": { "type": "Point", "coordinates": [ -75.0866647836244, 40.013437777999954 ] } },
{ "type": "Feature", "properties": { "OBJECTID": 56, "SITE_NAME": "Freire Charter", "HOURS": "8A-2P", "ADDRESS": "2027 Chestnut Street", "CITY": "Philadelphia", "STATE": "PA", "ZIP": 19103 }, "geometry": { "type": "Point", "coordinates": [ -75.174479257775985, 39.952220416798838 ] } },
{ "type": "Feature", "properties": { "OBJECTID": 57, "SITE_NAME": "GALAEI", "HOURS": "9A-5P", "ADDRESS": "1207 Chestnut Street", "CITY": "Philadelphia", "STATE": "PA", "ZIP": 19107 }, "geometry": { "type": "Point", "coordinates": [ -75.160559261178406, 39.950490124898643 ] } },
{ "type": "Feature", "properties": { "OBJECTID": 58, "SITE_NAME": "Gaudenzia", "HOURS": "7A-3P", "ADDRESS": "1516 Washington Ave.", "CITY": "Philadelphia", "STATE": "PA", "ZIP": 19146 }, "geometry": { "type": "Point", "coordinates": [ -75.168922407025789, 39.938028132459351 ] } },
{ "type": "Feature", "properties": { "OBJECTID": 59, "SITE_NAME": "Germantown Settlement", "HOURS": "9A-6P", "ADDRESS": "5538 Wayne Avenue", "CITY": "Philadelphia", "STATE": "PA", "ZIP": 19144 }, "geometry": { "type": "Point", "coordinates": [ -75.177873339057584, 40.031086476303891 ] } },
{ "type": "Feature", "properties": { "OBJECTID": 60, "SITE_NAME": "Get Up", "HOURS": "9A-5P", "ADDRESS": "2815 Kensington Ave", "CITY": "Philadelphia", "STATE": "PA", "ZIP": 19125 }, "geometry": { "type": "Point", "coordinates": [ -75.122039591804864, 39.991664925304704 ] } },
{ "type": "Feature", "properties": { "OBJECTID": 61, "SITE_NAME": "Giovanni's Room", "HOURS": "M-SAT 11:3A-7P  SUN 1P-7P", "ADDRESS": "345 S. 12th Street", "CITY": "Philadelphia", "STATE": "PA", "ZIP": 19107 }, "geometry": { "type": "Point", "coordinates": [ -75.161302247429632, 39.945193605153165 ] } },
{ "type": "Feature", "properties": { "OBJECTID": 62, "SITE_NAME": "Haven Youth Center", "HOURS": "11A-6P", "ADDRESS": "6934 Woodland Ave", "CITY": "Philadelphia", "STATE": "PA", "ZIP": 19142 }, "geometry": { "type": "Point", "coordinates": [ -75.240941316766865, 39.920851331136689 ] } },
{ "type": "Feature", "properties": { "OBJECTID": 63, "SITE_NAME": "Health Annex", "HOURS": "9A-5P", "ADDRESS": "6120-B Woodland Avenue", "CITY": "Philadelphia", "STATE": "PA", "ZIP": 19142 }, "geometry": { "type": "Point", "coordinates": [ -75.229700334074593, 39.928770010781065 ] } },
{ "type": "Feature", "properties": { "OBJECTID": 64, "SITE_NAME": "Health Center - Strawberry Mansion", "HOURS": "9A-4P", "ADDRESS": "2840 Dauphin Street", "CITY": "Philadelphia", "STATE": "PA", "ZIP": 19132 }, "geometry": { "type": "Point", "coordinates": [ -75.179070783473662, 39.990839522533726 ] } },
{ "type": "Feature", "properties": { "OBJECTID": 65, "SITE_NAME": "Health Center 1", "HOURS": "9A-4P", "ADDRESS": "1400 Lombard", "CITY": "Philadelphia", "STATE": "PA", "ZIP": 19146 }, "geometry": { "type": "Point", "coordinates": [ -75.165675723526391, 39.944681586390359 ] } },
{ "type": "Feature", "properties": { "OBJECTID": 66, "SITE_NAME": "Health Center 10", "HOURS": "9A-4P", "ADDRESS": "2230 Cottman Avenue", "CITY": "Philadelphia", "STATE": "PA", "ZIP": 19149 }, "geometry": { "type": "Point", "coordinates": [ -75.061287622212646, 40.048364505449577 ] } },
{ "type": "Feature", "properties": { "OBJECTID": 67, "SITE_NAME": "Health Center 2", "HOURS": "9A-4P", "ADDRESS": "1720 S. Broad Street", "CITY": "Philadelphia", "STATE": "PA", "ZIP": 19145 }, "geometry": { "type": "Point", "coordinates": [ -75.168826992276365, 39.92895212494485 ] } },
{ "type": "Feature", "properties": { "OBJECTID": 68, "SITE_NAME": "Health Center 3", "HOURS": "9A-4P", "ADDRESS": "555 S. 43rd Street", "CITY": "Philadelphia", "STATE": "PA", "ZIP": 19104 }, "geometry": { "type": "Point", "coordinates": [ -75.209062933417002, 39.948781441460866 ] } },
{ "type": "Feature", "properties": { "OBJECTID": 69, "SITE_NAME": "Health Center 4", "HOURS": "9A-4P", "ADDRESS": "4400 Haverford Avenue", "CITY": "Philadelphia", "STATE": "PA", "ZIP": 19104 }, "geometry": { "type": "Point", "coordinates": [ -75.210940882575997, 39.962545114160747 ] } },
{ "type": "Feature", "properties": { "OBJECTID": 70, "SITE_NAME": "Health Center 5", "HOURS": "9A-4P", "ADDRESS": "1920 N. 20th Street", "CITY": "Philadelphia", "STATE": "PA", "ZIP": 19121 }, "geometry": { "type": "Point", "coordinates": [ -75.166670463679424, 39.983569382945255 ] } },
{ "type": "Feature", "properties": { "OBJECTID": 71, "SITE_NAME": "Health Center 6", "HOURS": "9A-4P", "ADDRESS": "321 W. Girard Avenue", "CITY": "Philadelphia", "STATE": "PA", "ZIP": 19123 }, "geometry": { "type": "Point", "coordinates": [ -75.141950491351693, 39.969914525527336 ] } },
{ "type": "Feature", "properties": { "OBJECTID": 72, "SITE_NAME": "Health Center 9", "HOURS": "9A-4P", "ADDRESS": "131 E. Chelten Avenue", "CITY": "Philadelphia", "STATE": "PA", "ZIP": 19144 }, "geometry": { "type": "Point", "coordinates": [ -75.172742068088681, 40.037878520636298 ] } },
{ "type": "Feature", "properties": { "OBJECTID": 73, "SITE_NAME": "Hope Haven II", "HOURS": "9A-5P", "ADDRESS": "2828 Diamond Street", "CITY": "Philadelphia", "STATE": "PA", "ZIP": 19121 }, "geometry": { "type": "Point", "coordinates": [ -75.179855296780772, 39.987680319017187 ] } },
{ "type": "Feature", "properties": { "OBJECTID": 74, "SITE_NAME": "Horizon House", "HOURS": "8A-4:3P", "ADDRESS": "120 S. 30th Street", "CITY": "Philadelphia", "STATE": "PA", "ZIP": 19104 }, "geometry": { "type": "Point", "coordinates": [ -75.183873281975366, 39.95306356096463 ] } },
{ "type": "Feature", "properties": { "OBJECTID": 75, "SITE_NAME": "How Ya Wannit Hair", "HOURS": "9A-12A", "ADDRESS": "1603 Margaret Street", "CITY": "Philadelphia", "STATE": "PA", "ZIP": 19124 }, "geometry": { "type": "Point", "coordinates": [ -75.083520742967082, 40.016802637443675 ] } },
{ "type": "Feature", "properties": { "OBJECTID": 76, "SITE_NAME": "Hunting Park Health Center - GPHA", "HOURS": "M T Th F  8:30A-5P", "ADDRESS": "1999 W. Hunting Park Ave.", "CITY": "Philadelphia", "STATE": "PA", "ZIP": 19140 }, "geometry": { "type": "Point", "coordinates": [ -75.160858602389069, 40.012770402464071 ] } },
{ "type": "Feature", "properties": { "OBJECTID": 77, "SITE_NAME": "Hunting Park Medical", "HOURS": "8A-5P", "ADDRESS": "4000 N. 9th Street 1st Floor", "CITY": "Philadelphia", "STATE": "PA", "ZIP": 19140 }, "geometry": { "type": "Point", "coordinates": [ -75.141809372914764, 40.012997022980734 ] } },
{ "type": "Feature", "properties": { "OBJECTID": 78, "SITE_NAME": "IDAAY", "HOURS": "9:3A-3P", "ADDRESS": "2221 N. Broad", "CITY": "Philadelphia", "STATE": "PA", "ZIP": 19132 }, "geometry": { "type": "Point", "coordinates": [ -75.155944195549054, 39.986953806122955 ] } },
{ "type": "Feature", "properties": { "OBJECTID": 79, "SITE_NAME": "Jefferson Family Med", "HOURS": "MTW 8-8 ThF 8-6 SAT 8-12", "ADDRESS": "823 Chestnut Street Suite 301", "CITY": "Philadelphia", "STATE": "PA", "ZIP": 19107 }, "geometry": { "type": "Point", "coordinates": [ -75.155002201442386, 39.949797186849999 ] } },
{ "type": "Feature", "properties": { "OBJECTID": 80, "SITE_NAME": "JFK Behavioral Health - Methadone Clinic", "HOURS": null, "ADDRESS": "907 N. Broad St. ", "CITY": "Philadelphia", "STATE": "PA", "ZIP": 19123 }, "geometry": { "type": "Point", "coordinates": [ -75.159541317739567, 39.970480141277044 ] } },
{ "type": "Feature", "properties": { "OBJECTID": 81, "SITE_NAME": "Jonathan LAX", "HOURS": "9A-5P", "ADDRESS": "1233 Locust Street", "CITY": "Philadelphia", "STATE": "PA", "ZIP": 19107 }, "geometry": { "type": "Point", "coordinates": [ -75.161796062664664, 39.947912393829775 ] } },
{ "type": "Feature", "properties": { "OBJECTID": 82, "SITE_NAME": "Justin's Snack Corner", "HOURS": "M-SAT 7A-4P", "ADDRESS": "601 S 52nd St", "CITY": "Philadelphia", "STATE": "PA", "ZIP": 19143 }, "geometry": { "type": "Point", "coordinates": [ -75.226809398193453, 39.950333454842664 ] } },
{ "type": "Feature", "properties": { "OBJECTID": 83, "SITE_NAME": "Kensington Hospital", "HOURS": "9A-5P", "ADDRESS": "136 Diamond Street", "CITY": "Philadelphia", "STATE": "PA", "ZIP": 19122 }, "geometry": { "type": "Point", "coordinates": [ -75.134591079213578, 39.981827228671079 ] } },
{ "type": "Feature", "properties": { "OBJECTID": 84, "SITE_NAME": "Key West Club", "HOURS": null, "ADDRESS": "207 S. Juniper Street", "CITY": "Philadelphia", "STATE": "PA", "ZIP": 19107 }, "geometry": { "type": "Point", "coordinates": [ -75.16322741134401, 39.948680535274896 ] } },
{ "type": "Feature", "properties": { "OBJECTID": 85, "SITE_NAME": "Kingsessing Teen Center", "HOURS": "1P-9P", "ADDRESS": "50th and Kingsessing", "CITY": "Philadelphia", "STATE": "PA", "ZIP": 19143 }, "geometry": { "type": "Point", "coordinates": [ -75.216510327867937, 39.942203675980856 ] } },
{ "type": "Feature", "properties": { "OBJECTID": 86, "SITE_NAME": "Kintock Group", "HOURS": "9A-5P", "ADDRESS": "301 E. Erie Avenue", "CITY": "Philadelphia", "STATE": "PA", "ZIP": 19134 }, "geometry": { "type": "Point", "coordinates": [ -75.122531958177646, 40.007195126271334 ] } },
{ "type": "Feature", "properties": { "OBJECTID": 87, "SITE_NAME": "Komceptos Hair and Beauty Salon", "HOURS": "M-Th 10A-6P F-Sat 9A-7P Sun 11A-3P", "ADDRESS": "542 Rising Sun Ave", "CITY": "Philadelphia", "STATE": "PA", "ZIP": 19140 }, "geometry": { "type": "Point", "coordinates": [ -75.138093650493943, 40.008940677496632 ] } },
{ "type": "Feature", "properties": { "OBJECTID": 88, "SITE_NAME": "Lansdowne MC", "HOURS": "9A-5P", "ADDRESS": "5945 Lansdowne Avenue", "CITY": "Philadelphia", "STATE": "PA", "ZIP": 19151 }, "geometry": { "type": "Point", "coordinates": [ -75.240093382987766, 39.975989976780951 ] } },
{ "type": "Feature", "properties": { "OBJECTID": 89, "SITE_NAME": "Liberty Lutheran Services", "HOURS": "8:3A-4:3P", "ADDRESS": "2169 74th Avenue", "CITY": "Philadelphia", "STATE": "PA", "ZIP": 19138 }, "geometry": { "type": "Point", "coordinates": [ -75.153987917486958, 40.06746738813063 ] } },
{ "type": "Feature", "properties": { "OBJECTID": 90, "SITE_NAME": "Mastery Charter School", "HOURS": "8A-2P", "ADDRESS": "5700 Wayne Ave", "CITY": "Philadelphia", "STATE": "PA", "ZIP": 19144 }, "geometry": { "type": "Point", "coordinates": [ -75.180244520442997, 40.032459124756535 ] } },
{ "type": "Feature", "properties": { "OBJECTID": 91, "SITE_NAME": "Maternity Care Coalition", "HOURS": "9A-5P", "ADDRESS": "2000 Hamilton St., Ste 205", "CITY": "Philadelphia", "STATE": "PA", "ZIP": 19130 }, "geometry": { "type": "Point", "coordinates": [ -75.17248656020449, 39.962374745285089 ] } },
{ "type": "Feature", "properties": { "OBJECTID": 92, "SITE_NAME": "Mazzoni Center", "HOURS": "9A-5P", "ADDRESS": "1201 Chestnut Street", "CITY": "Philadelphia", "STATE": "PA", "ZIP": 19107 }, "geometry": { "type": "Point", "coordinates": [ -75.160378741879498, 39.950447240275295 ] } },
{ "type": "Feature", "properties": { "OBJECTID": 93, "SITE_NAME": "Mental Health Association of Southeast PA", "HOURS": "9A-5P", "ADDRESS": "2709 N. Broad St", "CITY": "Philadelphia", "STATE": "PA", "ZIP": 19132 }, "geometry": { "type": "Point", "coordinates": [ -75.154361600941229, 39.994204933349849 ] } },
{ "type": "Feature", "properties": { "OBJECTID": 94, "SITE_NAME": "Midnight Cowboys Project", "HOURS": "9A-5P", "ADDRESS": "1207 Chestnut Street #5", "CITY": "Philadelphia", "STATE": "PA", "ZIP": 19107 }, "geometry": { "type": "Point", "coordinates": [ -75.160559261178406, 39.950490124898643 ] } },
{ "type": "Feature", "properties": { "OBJECTID": 95, "SITE_NAME": "Mobile Unit (TB Unit)", "HOURS": null, "ADDRESS": "500 S. Broad Street", "CITY": "Philadelphia", "STATE": "PA", "ZIP": 19146 }, "geometry": { "type": "Point", "coordinates": [ -75.165443978174068, 39.944517930972154 ] } },
{ "type": "Feature", "properties": { "OBJECTID": 96, "SITE_NAME": "Moore College", "HOURS": "9A-5P", "ADDRESS": "20th & Ben Franklin Parkway", "CITY": "Philadelphia", "STATE": "PA", "ZIP": 19103 }, "geometry": { "type": "Point", "coordinates": [ -75.172083544035388, 39.958801133952818 ] } },
{ "type": "Feature", "properties": { "OBJECTID": 97, "SITE_NAME": "Multicultural Academy", "HOURS": "8A-3P", "ADDRESS": "3821 N Broad", "CITY": "Philadelphia", "STATE": "PA", "ZIP": 19140 }, "geometry": { "type": "Point", "coordinates": [ -75.150668940612292, 40.011119988085994 ] } },
{ "type": "Feature", "properties": { "OBJECTID": 98, "SITE_NAME": "MVP Wireless Express", "HOURS": "M-Sat 10:3A-6P", "ADDRESS": "3634 Germatown Ave", "CITY": "Philadelphia", "STATE": "PA", "ZIP": 19140 }, "geometry": { "type": "Point", "coordinates": [ -75.150676279525484, 40.008564045910653 ] } },
{ "type": "Feature", "properties": { "OBJECTID": 99, "SITE_NAME": "N-Motion Barber Shop", "HOURS": "Tues-Sat 10A-8P", "ADDRESS": "2514 S. Dickinson St", "CITY": "Philadelphia", "STATE": "PA", "ZIP": 19146 }, "geometry": { "type": "Point", "coordinates": [ -75.186857724618463, 39.934094007910183 ] } },
{ "type": "Feature", "properties": { "OBJECTID": 100, "SITE_NAME": "North East Treatment", "HOURS": "9A-5P", "ADDRESS": "499 N. 5th Street", "CITY": "Philadelphia", "STATE": "PA", "ZIP": 19123 }, "geometry": { "type": "Point", "coordinates": [ -75.146549562100859, 39.9610304914412 ] } },
{ "type": "Feature", "properties": { "OBJECTID": 101, "SITE_NAME": "North Phila Health", "HOURS": "8A-4P", "ADDRESS": "8th & Girard", "CITY": "Philadelphia", "STATE": "PA", "ZIP": 19122 }, "geometry": { "type": "Point", "coordinates": [ -75.149969397492001, 39.970494562740875 ] } },
{ "type": "Feature", "properties": { "OBJECTID": 102, "SITE_NAME": "One Day At A Time", "HOURS": "8A-5P", "ADDRESS": "2532 N. Broad Street", "CITY": "Philadelphia", "STATE": "PA", "ZIP": 19132 }, "geometry": { "type": "Point", "coordinates": [ -75.155067314067736, 39.992118630571326 ] } },
{ "type": "Feature", "properties": { "OBJECTID": 103, "SITE_NAME": "One Day at a Time-TARP", "HOURS": "9A-5P", "ADDRESS": "2532 N. Broad St", "CITY": "Philadelphia", "STATE": "PA", "ZIP": 19132 }, "geometry": { "type": "Point", "coordinates": [ -75.155067314067736, 39.992118630571326 ] } },
{ "type": "Feature", "properties": { "OBJECTID": 104, "SITE_NAME": "Paley OB\/GYN", "HOURS": "9A-5P", "ADDRESS": "5501 Old York Rd, 3rd Fl", "CITY": "Philadelphia", "STATE": "PA", "ZIP": 19141 }, "geometry": { "type": "Point", "coordinates": [ -75.144583070530587, 40.036936611938536 ] } },
{ "type": "Feature", "properties": { "OBJECTID": 105, "SITE_NAME": "Papp's Pizza", "HOURS": "M-Sun 11A-11P", "ADDRESS": "6000 Lancaster Avenue", "CITY": "Philadelphia", "STATE": "PA", "ZIP": 19151 }, "geometry": { "type": "Point", "coordinates": [ -75.241596844398899, 39.982759308267212 ] } },
{ "type": "Feature", "properties": { "OBJECTID": 106, "SITE_NAME": "Parkside Historic", "HOURS": "9A-5P", "ADDRESS": "4222 Parkside Ave", "CITY": "Philadelphia", "STATE": "PA", "ZIP": 19104 }, "geometry": { "type": "Point", "coordinates": [ -75.210381424174926, 39.976564819864656 ] } },
{ "type": "Feature", "properties": { "OBJECTID": 107, "SITE_NAME": "Parkside Recovery", "HOURS": "????", "ADDRESS": "5000 Parkside Avenue", "CITY": "Philadelphia", "STATE": "PA", "ZIP": 19131 }, "geometry": { "type": "Point", "coordinates": [ -75.219600009608243, 39.979981884434153 ] } },
{ "type": "Feature", "properties": { "OBJECTID": 108, "SITE_NAME": "Pathways to Housing", "HOURS": "M-F 9A-5P", "ADDRESS": "5201 Old York Road, 4th Floor", "CITY": "Philadelphia", "STATE": "PA", "ZIP": 19141 }, "geometry": { "type": "Point", "coordinates": [ -75.145462026513727, 40.032893173684577 ] } },
{ "type": "Feature", "properties": { "OBJECTID": 109, "SITE_NAME": "Penn LGBT", "HOURS": "10A-6P", "ADDRESS": "3907 Spruce St.", "CITY": "Philadelphia", "STATE": "PA", "ZIP": 19104 }, "geometry": { "type": "Point", "coordinates": [ -75.201177289889827, 39.951582362050473 ] } },
{ "type": "Feature", "properties": { "OBJECTID": 110, "SITE_NAME": "People Helping People", "HOURS": "9A-5P", "ADDRESS": "631 Anchor Way", "CITY": "Philadelphia", "STATE": "PA", "ZIP": 19120 }, "geometry": { "type": "Point", "coordinates": [ -75.100396109795923, 40.040192302209348 ] } },
{ "type": "Feature", "properties": { "OBJECTID": 111, "SITE_NAME": "Phenomenal Records", "HOURS": "M-Sat 10A-8P Sun 12P-6P", "ADDRESS": "1432 Cecil B. Moore Ave.", "CITY": "Philadelphia", "STATE": "PA", "ZIP": 19121 }, "geometry": { "type": "Point", "coordinates": [ -75.159417729483749, 39.978846853620134 ] } },
{ "type": "Feature", "properties": { "OBJECTID": 112, "SITE_NAME": "Phila College of Osteo Med", "HOURS": "9A-5P", "ADDRESS": "4190 City Line Avenue #315", "CITY": "Philadelphia", "STATE": "PA", "ZIP": 19131 }, "geometry": { "type": "Point", "coordinates": [ -75.218233350269358, 40.005026988744014 ] } },
{ "type": "Feature", "properties": { "OBJECTID": 113, "SITE_NAME": "Philadelphia FIGHT", "HOURS": "9A-5P", "ADDRESS": "1233 Locust Street", "CITY": "Philadelphia", "STATE": "PA", "ZIP": 19107 }, "geometry": { "type": "Point", "coordinates": [ -75.161796062664664, 39.947912393829775 ] } },
{ "type": "Feature", "properties": { "OBJECTID": 114, "SITE_NAME": "Philadelphia Health Assoc.  - Pediatrics", "HOURS": "9A-4P", "ADDRESS": "2085 N. 63rd St.", "CITY": "Philadelphia", "STATE": "PA", "ZIP": 19151 }, "geometry": { "type": "Point", "coordinates": [ -75.249441720051166, 39.987828235124994 ] } },
{ "type": "Feature", "properties": { "OBJECTID": 115, "SITE_NAME": "Philly TNG", "HOURS": null, "ADDRESS": "2642 S. Sartain St", "CITY": "Philadelphia", "STATE": "PA", "ZIP": 19148 }, "geometry": { "type": "Point", "coordinates": [ -75.167069908800613, 39.916696429912712 ] } },
{ "type": "Feature", "properties": { "OBJECTID": 116, "SITE_NAME": "Positive Voices of Philadelphia", "HOURS": "M-F 9A-6P Sat-Sun 10A-2P", "ADDRESS": "5722 Greene St", "CITY": "Philadelphia", "STATE": "PA", "ZIP": 19144 }, "geometry": { "type": "Point", "coordinates": [ -75.177445690133553, 40.034617614566706 ] } },
{ "type": "Feature", "properties": { "OBJECTID": 117, "SITE_NAME": "PP FNE", "HOURS": null, "ADDRESS": "2751 Comly Road", "CITY": "Philadelphia", "STATE": "PA", "ZIP": 19154 }, "geometry": { "type": "Point", "coordinates": [ -74.999911180379812, 40.103169291770151 ] } },
{ "type": "Feature", "properties": { "OBJECTID": 118, "SITE_NAME": "Prevention Point", "HOURS": "12p-3p", "ADDRESS": "166 W Lehigh ave", "CITY": "Philadelphia", "STATE": "PA", "ZIP": 19133 }, "geometry": { "type": "Point", "coordinates": [ -75.134111793319178, 39.991190073312751 ] } },
{ "type": "Feature", "properties": { "OBJECTID": 119, "SITE_NAME": "Pro-Act", "HOURS": "24\/7", "ADDRESS": "444 N. 3rd Street", "CITY": "Philadelphia", "STATE": "PA", "ZIP": 19123 }, "geometry": { "type": "Point", "coordinates": [ -75.143956364730286, 39.958467985862178 ] } },
{ "type": "Feature", "properties": { "OBJECTID": 120, "SITE_NAME": "Project 4 Ever Striving, Inc", "HOURS": "M-F 9A-5P", "ADDRESS": "2418 W. York Street", "CITY": "Philadelphia", "STATE": "PA", "ZIP": 19132 }, "geometry": { "type": "Point", "coordinates": [ -75.172302625422176, 39.991501262823022 ] } },
{ "type": "Feature", "properties": { "OBJECTID": 121, "SITE_NAME": "Project Safe", "HOURS": "Varies", "ADDRESS": "309 S. 51st Street", "CITY": "Philadelphia", "STATE": "PA", "ZIP": 19104 }, "geometry": { "type": "Point", "coordinates": [ -75.224093380449219, 39.953772796760482 ] } },
{ "type": "Feature", "properties": { "OBJECTID": 122, "SITE_NAME": "PWC", "HOURS": "8A-5P", "ADDRESS": "777 Appletree Street", "CITY": "Philadelphia", "STATE": "PA", "ZIP": 19106 }, "geometry": { "type": "Point", "coordinates": [ -75.152635463858772, 39.953666357358763 ] } },
{ "type": "Feature", "properties": { "OBJECTID": 123, "SITE_NAME": "Rah's Freehand Barbershop", "HOURS": "Tues-Sat 10A-8P", "ADDRESS": "4221 Germantown Ave", "CITY": "Philadelphia", "STATE": "PA", "ZIP": 19140 }, "geometry": { "type": "Point", "coordinates": [ -75.155366459519485, 40.018692698820551 ] } },
{ "type": "Feature", "properties": { "OBJECTID": 124, "SITE_NAME": "Rodriguez Grocery", "HOURS": "10A-8P", "ADDRESS": "2454 N. Turner St.", "CITY": "Philadelphia", "STATE": "PA", "ZIP": 19121 }, "geometry": { "type": "Point", "coordinates": [ -75.175781519585556, 39.980012280347665 ] } },
{ "type": "Feature", "properties": { "OBJECTID": 125, "SITE_NAME": "SAFEGUARDS", "HOURS": "9A-5P", "ADDRESS": "1700 Market Street, 18th fl.", "CITY": "Philadelphia", "STATE": "PA", "ZIP": 19103 }, "geometry": { "type": "Point", "coordinates": [ -75.168504397444082, 39.952936697063699 ] } },
{ "type": "Feature", "properties": { "OBJECTID": 126, "SITE_NAME": "Sansom Street Cinema", "HOURS": "24\/7", "ADDRESS": "120 S. 13th Street", "CITY": "Philadelphia", "STATE": "PA", "ZIP": 19107 }, "geometry": { "type": "Point", "coordinates": [ -75.16203770336557, 39.949685763877042 ] } },
{ "type": "Feature", "properties": { "OBJECTID": 127, "SITE_NAME": "Saving Souls in Heels", "HOURS": null, "ADDRESS": "2337 S 72nd St", "CITY": "Philadelphia", "STATE": "PA", "ZIP": 19142 }, "geometry": { "type": "Point", "coordinates": [ -75.24190483853387, 39.916530896412127 ] } },
{ "type": "Feature", "properties": { "OBJECTID": 128, "SITE_NAME": "Sharp Skill Barber Shop", "HOURS": "8:3A-12A", "ADDRESS": "7226 Haverford Avenue", "CITY": "Philadelphia", "STATE": "PA", "ZIP": 19151 }, "geometry": { "type": "Point", "coordinates": [ -75.261217719567071, 39.974910755733703 ] } },
{ "type": "Feature", "properties": { "OBJECTID": 129, "SITE_NAME": "Shepard Teen Center", "HOURS": "1P-9P", "ADDRESS": "57th and Haverford", "CITY": "Philadelphia", "STATE": "PA", "ZIP": 19131 }, "geometry": { "type": "Point", "coordinates": [ -75.233732679073384, 39.968002035088318 ] } },
{ "type": "Feature", "properties": { "OBJECTID": 130, "SITE_NAME": "Shot Glasses Caf√©", "HOURS": "MWF 12p-12a", "ADDRESS": "7178 N. 19th St.", "CITY": "Philadelphia", "STATE": "PA", "ZIP": 19138 }, "geometry": { "type": "Point", "coordinates": [ -75.147589260858069, 40.063724663603551 ] } },
{ "type": "Feature", "properties": { "OBJECTID": 131, "SITE_NAME": "SOAR Inc.", "HOURS": null, "ADDRESS": "9150 Marshall St", "CITY": "Philadelphia", "STATE": "PA", "ZIP": 19114 }, "geometry": { "type": "Point", "coordinates": [ -75.03248965172952, 40.072058382072996 ] } },
{ "type": "Feature", "properties": { "OBJECTID": 132, "SITE_NAME": "St. Chris's Hosp Dorothy Mann Center - Immunology", "HOURS": "9A-5P", "ADDRESS": "3601 A Street, Nelson Pavillion 1st Fl", "CITY": "Philadelphia", "STATE": "PA", "ZIP": 19134 }, "geometry": { "type": "Point", "coordinates": [ -75.125326096893303, 40.006721553262736 ] } },
{ "type": "Feature", "properties": { "OBJECTID": 133, "SITE_NAME": "St. Christopher's Adolescent Medicine", "HOURS": "8:3A-5P", "ADDRESS": "3601 A Street", "CITY": "Philadelphia", "STATE": "PA", "ZIP": 19134 }, "geometry": { "type": "Point", "coordinates": [ -75.125326096893303, 40.006721553262736 ] } },
{ "type": "Feature", "properties": { "OBJECTID": 134, "SITE_NAME": "St. John's Community Service", "HOURS": "9A-5P", "ADDRESS": "520 N. Columbus Blvd #301", "CITY": "Philadelphia", "STATE": "PA", "ZIP": 19123 }, "geometry": { "type": "Point", "coordinates": [ -75.137561009875583, 39.959781984675729 ] } },
{ "type": "Feature", "properties": { "OBJECTID": 135, "SITE_NAME": "Susquehanna Park Residential TX Ctr", "HOURS": "7A-3P", "ADDRESS": "2137 N 33rd st", "CITY": "Philadelphia", "STATE": "PA", "ZIP": 19132 }, "geometry": { "type": "Point", "coordinates": [ -75.186679649836435, 39.990040963028726 ] } },
{ "type": "Feature", "properties": { "OBJECTID": 136, "SITE_NAME": "Temple Pediatric Care", "HOURS": "9A-5P", "ADDRESS": "3223 N Broad St.", "CITY": "Philadelphia", "STATE": "PA", "ZIP": 19140 }, "geometry": { "type": "Point", "coordinates": [ -75.152562882879579, 40.002440306330641 ] } },
{ "type": "Feature", "properties": { "OBJECTID": 137, "SITE_NAME": "Temple University Physicians", "HOURS": "9A-5P", "ADDRESS": "1316 W. Ontario St., Suite 808", "CITY": "Philadelphia", "STATE": "PA", "ZIP": 19140 }, "geometry": { "type": "Point", "coordinates": [ -75.150663438607978, 40.00445190581204 ] } },
{ "type": "Feature", "properties": { "OBJECTID": 138, "SITE_NAME": "The COLOURS Organization", "HOURS": "M-TH 10A-8:3P F 10A-6P", "ADDRESS": "4916 Chestnut Street", "CITY": "Philadelphia", "STATE": "PA", "ZIP": 19139 }, "geometry": { "type": "Point", "coordinates": [ -75.219843510528349, 39.957760074121005 ] } },
{ "type": "Feature", "properties": { "OBJECTID": 139, "SITE_NAME": "The Shop ", "HOURS": "M-Sat 11A-7P", "ADDRESS": "4709 Frankford Ave", "CITY": "Philadelphia", "STATE": "PA", "ZIP": 19124 }, "geometry": { "type": "Point", "coordinates": [ -75.083354064405128, 40.01702767284543 ] } },
{ "type": "Feature", "properties": { "OBJECTID": 140, "SITE_NAME": "Tioga Arms Apartments", "HOURS": "M-F 9A-4P", "ADDRESS": "1828 W. Tioga St.", "CITY": "Philadelphia", "STATE": "PA", "ZIP": 19140 }, "geometry": { "type": "Point", "coordinates": [ -75.159404385597043, 40.007108347797413 ] } },
{ "type": "Feature", "properties": { "OBJECTID": 141, "SITE_NAME": "TJUH HIV", "HOURS": "24\/\/7", "ADDRESS": "834 Walnut, 6th Fl, ste. 650", "CITY": "Philadelphia", "STATE": "PA", "ZIP": 19107 }, "geometry": { "type": "Point", "coordinates": [ -75.155311969195921, 39.948178448396845 ] } },
{ "type": "Feature", "properties": { "OBJECTID": 142, "SITE_NAME": "TPAC", "HOURS": "9A-5P", "ADDRESS": "451 University Avenue", "CITY": "Philadelphia", "STATE": "PA", "ZIP": 19104 }, "geometry": { "type": "Point", "coordinates": [ -75.198557058705802, 39.947675471831523 ] } },
{ "type": "Feature", "properties": { "OBJECTID": 143, "SITE_NAME": "U of the Sciences", "HOURS": "8:3A-4:3P", "ADDRESS": "600 S. 43rd Street", "CITY": "Philadelphia", "STATE": "PA", "ZIP": 19104 }, "geometry": { "type": "Point", "coordinates": [ -75.208958439384816, 39.947624224502881 ] } },
{ "type": "Feature", "properties": { "OBJECTID": 144, "SITE_NAME": "United Community Clinics", "HOURS": "Monday 6P-10P", "ADDRESS": "4159 W Girard Ave", "CITY": "Philadelphia", "STATE": "PA", "ZIP": 19104 }, "geometry": { "type": "Point", "coordinates": [ -75.209614381874161, 39.973635576510787 ] } },
{ "type": "Feature", "properties": { "OBJECTID": 145, "SITE_NAME": "UofA Student Health", "HOURS": "PRN", "ADDRESS": "320 S. Broad Street", "CITY": "Philadelphia", "STATE": "PA", "ZIP": 19102 }, "geometry": { "type": "Point", "coordinates": [ -75.165134957106787, 39.94593015624941 ] } },
{ "type": "Feature", "properties": { "OBJECTID": 146, "SITE_NAME": "Valley Youth", "HOURS": "24\/7", "ADDRESS": "1118 Market Street", "CITY": "Philadelphia", "STATE": "PA", "ZIP": 19107 }, "geometry": { "type": "Point", "coordinates": [ -75.15924982698786, 39.951108360106339 ] } },
{ "type": "Feature", "properties": { "OBJECTID": 147, "SITE_NAME": "Venture Inn (Bar)", "HOURS": "11A-2A", "ADDRESS": "255 S. Camac Street", "CITY": "Philadelphia", "STATE": "PA", "ZIP": 19107 }, "geometry": { "type": "Point", "coordinates": [ -75.161681392262338, 39.947028338569169 ] } },
{ "type": "Feature", "properties": { "OBJECTID": 148, "SITE_NAME": "Villa (Sneaker Store) - 52nd St", "HOURS": "M-Th 10A-7P F-Sat 10A-8P Sun 10A-3P", "ADDRESS": "4 South 52nd Street", "CITY": "Philadelphia", "STATE": "PA", "ZIP": 19139 }, "geometry": { "type": "Point", "coordinates": [ -75.225048577008934, 39.959610615466573 ] } },
{ "type": "Feature", "properties": { "OBJECTID": 149, "SITE_NAME": "Villa (Sneaker Store) - Broad Street", "HOURS": "M-Th 10A-7P F-Sat 10A-8P Sun 10A-3P", "ADDRESS": "1231 North Broad Street", "CITY": "Philadelphia", "STATE": "PA", "ZIP": 19122 }, "geometry": { "type": "Point", "coordinates": [ -75.158999438724834, 39.972962154587158 ] } },
{ "type": "Feature", "properties": { "OBJECTID": 150, "SITE_NAME": "Villa (Sneaker Store) - Chelten", "HOURS": "M-Th 10A-7P F-Sat 10A-8P Sun 10A-3P", "ADDRESS": "5700 Germantown Avenue", "CITY": "Philadelphia", "STATE": "PA", "ZIP": 19144 }, "geometry": { "type": "Point", "coordinates": [ -75.174937243883335, 40.035932584151638 ] } },
{ "type": "Feature", "properties": { "OBJECTID": 151, "SITE_NAME": "Villa (Sneaker Store) - Germantown", "HOURS": "M-Th 10A-7P F-Sat 10A-8P Sun 10A-3P", "ADDRESS": "3635 Germantown Ave", "CITY": "Philadelphia", "STATE": "PA", "ZIP": 19140 }, "geometry": { "type": "Point", "coordinates": [ -75.150523289089946, 40.008484760417907 ] } },
{ "type": "Feature", "properties": { "OBJECTID": 152, "SITE_NAME": "Villa (Sneaker Store) - Kensington", "HOURS": "M-Th 10A-7P F-Sat 10A-8P Sun 10A-3P", "ADDRESS": "3058-70 Kensington Avenue", "CITY": "Philadelphia", "STATE": "PA", "ZIP": 19134 }, "geometry": { "type": "Point", "coordinates": [ -75.116394920454411, 39.994907844750216 ] } },
{ "type": "Feature", "properties": { "OBJECTID": 153, "SITE_NAME": "Villa (Sneaker Store) - Lancaster", "HOURS": "M-Th 10A-7P F-Sat 10A-8P Sun 10A-3P", "ADDRESS": "4034 Lancaster Avenue", "CITY": "Philadelphia", "STATE": "PA", "ZIP": 19104 }, "geometry": { "type": "Point", "coordinates": [ -75.203551378612957, 39.963820500717432 ] } },
{ "type": "Feature", "properties": { "OBJECTID": 154, "SITE_NAME": "Villa (Sneaker Store) - Market", "HOURS": "M-Th 10A-7P F-Sat 10A-8P Sun 10A-3P", "ADDRESS": "1018 Market Street", "CITY": "Philadelphia", "STATE": "PA", "ZIP": 19107 }, "geometry": { "type": "Point", "coordinates": [ -75.15745594371127, 39.951549231419321 ] } },
{ "type": "Feature", "properties": { "OBJECTID": 155, "SITE_NAME": "Villa (Sneaker Store) - Olney", "HOURS": "M-Th 10A-7P F-Sat 10A-8P Sun 10A-3P", "ADDRESS": "5620 North Broad Street", "CITY": "Philadelphia", "STATE": "PA", "ZIP": 19141 }, "geometry": { "type": "Point", "coordinates": [ -75.144679179516956, 40.039683567625929 ] } },
{ "type": "Feature", "properties": { "OBJECTID": 156, "SITE_NAME": "Villa (Sneaker Store) - The Gallery", "HOURS": "M-Th 10A-7P F-Sat 10A-8P Sun 10A-3P", "ADDRESS": "The Gallery Mall, 1001 Market Street", "CITY": "Philadelphia", "STATE": "PA", "ZIP": 19107 }, "geometry": { "type": "Point", "coordinates": [ -75.157305862751656, 39.95167529508322 ] } },
{ "type": "Feature", "properties": { "OBJECTID": 157, "SITE_NAME": "Villa (Sneaker Store) - Wadsworth Plaza", "HOURS": "M-Th 10A-7P F-Sat 10A-8P Sun 10A-3P", "ADDRESS": "1616 East Wadsworth Avenue", "CITY": "Philadelphia", "STATE": "PA", "ZIP": 19150 }, "geometry": { "type": "Point", "coordinates": [ -75.172114462222325, 40.080883029457958 ] } },
{ "type": "Feature", "properties": { "OBJECTID": 158, "SITE_NAME": "Villa (Sneaker Store) - Whitman Plaza", "HOURS": "M-Th 10A-7P F-Sat 10A-8P Sun 10A-3P", "ADDRESS": "424 West Oregon Ave., Space 260", "CITY": "Philadelphia", "STATE": "PA", "ZIP": 19148 }, "geometry": { "type": "Point", "coordinates": [ -75.155981101461649, 39.914734895273121 ] } },
{ "type": "Feature", "properties": { "OBJECTID": 159, "SITE_NAME": "W. Phila Comm Center", "HOURS": "7A-6P", "ADDRESS": "3512 Haverford Avenue", "CITY": "Philadelphia", "STATE": "PA", "ZIP": 19104 }, "geometry": { "type": "Point", "coordinates": [ -75.193720841340934, 39.96378646273488 ] } },
{ "type": "Feature", "properties": { "OBJECTID": 160, "SITE_NAME": "WES Health Systems", "HOURS": "9A-5P", "ADDRESS": "1315 Windrim Ave", "CITY": "Philadelphia", "STATE": "PA", "ZIP": 19141 }, "geometry": { "type": "Point", "coordinates": [ -75.14474550102679, 40.030636582771159 ] } },
{ "type": "Feature", "properties": { "OBJECTID": 161, "SITE_NAME": "Women in Transition", "HOURS": "9A-5P", "ADDRESS": "21 S. 12th Street #6", "CITY": "Philadelphia", "STATE": "PA", "ZIP": 19107 }, "geometry": { "type": "Point", "coordinates": [ -75.159977661484888, 39.951150509874076 ] } },
{ "type": "Feature", "properties": { "OBJECTID": 162, "SITE_NAME": "Women's Health Clinical Research Center", "HOURS": "Mon-Fri 8A -5P", "ADDRESS": "3701 Market St., Suite 810", "CITY": "Philadelphia", "STATE": "PA", "ZIP": 19104 }, "geometry": { "type": "Point", "coordinates": [ -75.196122291428495, 39.956517839444032 ] } },
{ "type": "Feature", "properties": { "OBJECTID": 163, "SITE_NAME": "Woody's Bar", "HOURS": "11A-2A", "ADDRESS": "202. S. 13th Street", "CITY": "Philadelphia", "STATE": "PA", "ZIP": 19107 }, "geometry": { "type": "Point", "coordinates": [ -75.162215114689147, 39.948850601403251 ] } },
{ "type": "Feature", "properties": { "OBJECTID": 164, "SITE_NAME": "WPEB Radio Station", "HOURS": "10A-10P", "ADDRESS": "541 S 52nd Street  #B", "CITY": "Philadelphia", "STATE": "PA", "ZIP": 19143 }, "geometry": { "type": "Point", "coordinates": [ -75.226726511639043, 39.95073837006116 ] } },
{ "type": "Feature", "properties": { "OBJECTID": 165, "SITE_NAME": "YES Philly", "HOURS": "9:3A-4P", "ADDRESS": "1231 N. Broad, 2nd Fl", "CITY": "Philadelphia", "STATE": "PA", "ZIP": 19122 }, "geometry": { "type": "Point", "coordinates": [ -75.159069680846017, 39.972837506264817 ] } },
{ "type": "Feature", "properties": { "OBJECTID": 166, "SITE_NAME": "YHEP", "HOURS": "M 9A-5p TWTh 1A-6P F 11-5", "ADDRESS": "112 N. Broad St.  9th Fl", "CITY": "Philadelphia", "STATE": "PA", "ZIP": 19102 }, "geometry": { "type": "Point", "coordinates": [ -75.163195240069868, 39.954869915891486 ] } },
{ "type": "Feature", "properties": { "OBJECTID": 167, "SITE_NAME": "YOACAP", "HOURS": "9A-5P", "ADDRESS": "1207 Chestnut Street", "CITY": "Philadelphia", "STATE": "PA", "ZIP": 19107 }, "geometry": { "type": "Point", "coordinates": [ -75.160559261178406, 39.950490124898643 ] } },
{ "type": "Feature", "properties": { "OBJECTID": 168, "SITE_NAME": "Youth Emergency Services", "HOURS": "9A-5P", "ADDRESS": "1525 Fairmount Ave", "CITY": "Philadelphia", "STATE": "PA", "ZIP": 19130 }, "geometry": { "type": "Point", "coordinates": [ -75.163152750013523, 39.967189340852549 ] } },
{ "type": "Feature", "properties": { "OBJECTID": 169, "SITE_NAME": "Youth Services Mother Baby Group Home", "HOURS": "9A-5P", "ADDRESS": "410 N. 34th", "CITY": "Philadelphia", "STATE": "PA", "ZIP": 19104 }, "geometry": { "type": "Point", "coordinates": [ -75.191292304307282, 39.961970087424056 ] } },
{ "type": "Feature", "properties": { "OBJECTID": 170, "SITE_NAME": "YouthBuild Charter", "HOURS": "9A-3P", "ADDRESS": "1231 N. Broad, 3rd Fl", "CITY": "Philadelphia", "STATE": "PA", "ZIP": 19122 }, "geometry": { "type": "Point", "coordinates": [ -75.159069680846017, 39.972837506264817 ] } }
]
}
